{"type":"FeatureCollection","totalFeatures":23,"features":[{"type":"Feature","id":"InventarioFlorestal2010.116322","geometry":{"type":"MultiPolygon","coordinates":[[[[-47.98092647,-25.20248567],[-47.9809307,-25.20265917],[-47.98280872,-25.20453454],[-47.98371038,-25.20532165],[-47.98457954,-25.20608054],[-47.9856076,-25.20666762],[-47.98620399,-25.20693962],[-47.98684045,-25.20743172],[-47.9869568,-25.20793434],[-47.98940483,-25.21015718],[-47.98996763,-25.21068768],[-47.99288899,-25.21308136],[-47.99839253,-25.21754632],[-48.00053834,-25.2194191],[-48.00178518,-25.22034619],[-48.00721339,-25.22467868],[-48.01124019,-25.22792703],[-48.01807493,-25.23318083],[-48.02199922,-25.23699526],[-48.03041161,-25.24349838],[-48.03425723,-25.24690495],[-48.0382855,-25.25015268],[-48.0384475,-25.25033328],[-48.03863642,-25.25050842],[-48.0387361,-25.25057178],[-48.04411218,-25.25553937],[-48.05083709,-25.26157514],[-48.05498012,-25.26547634],[-48.06050179,-25.27079345],[-48.07131426,-25.2815614],[-48.07380327,-25.28453965],[-48.07853473,-25.28967524],[-48.07855001,-25.28968683],[-48.07950647,-25.29061082],[-48.08052502,-25.2917192],[-48.081476,-25.29287316],[-48.08197481,-25.29334683],[-48.08317431,-25.29448586],[-48.08533647,-25.29646052],[-48.08652047,-25.29771019],[-48.08731638,-25.29866732],[-48.08913316,-25.29969492],[-48.08924188,-25.29958848],[-48.08931045,-25.29954382],[-48.08938856,-25.29952965],[-48.08946297,-25.29951615],[-48.08960585,-25.299532],[-48.08979956,-25.29955348],[-48.09021479,-25.29962304],[-48.09029901,-25.29960207],[-48.09039952,-25.29957706],[-48.09061455,-25.29952194],[-48.09083096,-25.29946647],[-48.09090283,-25.29945343],[-48.09098349,-25.2994388],[-48.09109479,-25.29944883],[-48.09120139,-25.29945844],[-48.09141845,-25.29955476],[-48.09152431,-25.29959056],[-48.09165083,-25.29963263],[-48.09188141,-25.2996783],[-48.09192202,-25.29967414],[-48.09205317,-25.29966023],[-48.09208278,-25.29964802],[-48.0921787,-25.29960687],[-48.09230489,-25.29951246],[-48.09237916,-25.29941831],[-48.09153426,-25.29771098],[-48.09105551,-25.2963036],[-48.09016633,-25.29498541],[-48.08924655,-25.29468689],[-48.08840695,-25.29373733],[-48.08743513,-25.29332995],[-48.08558194,-25.29254046],[-48.08428218,-25.29188767],[-48.08370906,-25.29140377],[-48.08361858,-25.29136641],[-48.08238291,-25.29061621],[-48.08126652,-25.28966204],[-48.08027258,-25.28829624],[-48.08027032,-25.28828908],[-48.08026408,-25.2882805],[-48.07931114,-25.28525739],[-48.07848165,-25.28182268],[-48.07772128,-25.28025389],[-48.07718589,-25.27890178],[-48.07627282,-25.27737277],[-48.07605048,-25.27718477],[-48.07485555,-25.27638331],[-48.07428763,-25.27615631],[-48.07332048,-25.27569373],[-48.07255256,-25.27537148],[-48.07200036,-25.2750564],[-48.06989688,-25.27421026],[-48.06765639,-25.27261187],[-48.06687702,-25.27179818],[-48.06610863,-25.27139039],[-48.06393163,-25.27108805],[-48.06294699,-25.27015275],[-48.06227368,-25.26984979],[-48.06066366,-25.26957256],[-48.05977494,-25.26862291],[-48.05808804,-25.26765745],[-48.05663261,-25.2665924],[-48.05497671,-25.26438398],[-48.05286935,-25.26195952],[-48.05286224,-25.26194537],[-48.0528609,-25.26194383],[-48.05123089,-25.25870007],[-48.05047652,-25.25725024],[-48.05005228,-25.25676822],[-48.04979437,-25.25638862],[-48.04962901,-25.25614459],[-48.04954849,-25.25602289],[-48.04534556,-25.25269371],[-48.04469818,-25.2521608],[-48.04398691,-25.25169503],[-48.04350985,-25.25122459],[-48.04337361,-25.25104944],[-48.04177308,-25.24961836],[-48.04044145,-25.24814166],[-48.03807306,-25.24716213],[-48.03573689,-25.24483627],[-48.0342663,-25.24439298],[-48.03033521,-25.24203527],[-48.02909817,-25.24138903],[-48.02554714,-25.23748483],[-48.02322175,-25.23474456],[-48.02321673,-25.23473289],[-48.02321334,-25.2347289],[-48.02159578,-25.23096823],[-48.02106395,-25.22983812],[-48.0208691,-25.22970251],[-48.01960782,-25.22876509],[-48.01814413,-25.22775039],[-48.01649625,-25.22659079],[-48.01495451,-25.22557582],[-48.01307037,-25.22445608],[-48.01253188,-25.22406204],[-48.01221925,-25.22377078],[-48.01109057,-25.22300248],[-48.00706725,-25.21981388],[-48.00282209,-25.21641384],[-48.00107974,-25.21496415],[-48.00105649,-25.21503781],[-48.00086851,-25.21563332],[-48.00113789,-25.21600058],[-48.00112902,-25.21636219],[-48.00081722,-25.2161026],[-48.00058404,-25.21588079],[-48.0001097,-25.21576262],[-47.99971574,-25.2156099],[-47.99944193,-25.21542344],[-47.99944991,-25.215098],[-47.99925294,-25.21502164],[-47.99904442,-25.21541537],[-47.99868134,-25.21562507],[-47.99813993,-25.21499902],[-47.99767092,-25.21466387],[-47.99768868,-25.21394065],[-47.9978106,-25.21383459],[-47.99782214,-25.2133645],[-47.99794672,-25.21314996],[-47.99826649,-25.2130841],[-47.99838929,-25.21294187],[-47.99846901,-25.21300129],[-47.99856363,-25.21299958],[-47.99870387,-25.21292711],[-47.99873417,-25.21289213],[-47.99867717,-25.21284024],[-47.99758398,-25.21184507],[-47.99751624,-25.2117834],[-47.99598487,-25.21022696],[-47.99552773,-25.20964817],[-47.99532107,-25.20931585],[-47.99523738,-25.20922824],[-47.99523237,-25.20921612],[-47.99522902,-25.20921262],[-47.9951738,-25.20907904],[-47.99510675,-25.20897122],[-47.99502744,-25.20884369],[-47.99493416,-25.20857763],[-47.99330984,-25.20812136],[-47.99236053,-25.20760406],[-47.99114998,-25.20633459],[-47.98952184,-25.20501045],[-47.98787833,-25.2044756],[-47.9871109,-25.20430175],[-47.9872573,-25.2046144],[-47.98814571,-25.20548013],[-47.98857566,-25.20603953],[-47.98812491,-25.20604864],[-47.98547203,-25.20395615],[-47.98423615,-25.20306586],[-47.98300799,-25.202491],[-47.98147931,-25.20239561],[-47.98092455,-25.20240681],[-47.98092647,-25.20248567]],[[-47.99755455,-25.21292491],[-47.99710131,-25.21356692],[-47.99690701,-25.21338208],[-47.99675867,-25.21294491],[-47.99700871,-25.21247966],[-47.99713329,-25.21226512],[-47.99733648,-25.21208836],[-47.99764648,-25.21242027],[-47.99755455,-25.21292491]]]]},"geometry_name":"the_geom","properties":{"DLEGNDMAPA":"Formação Pioneira Arbustiva-Herbácea sobre Sedimentos Marinhos Recentes","QAREA":502.06}},{"type":"Feature","id":"InventarioFlorestal2010.116323","geometry":{"type":"MultiPolygon","coordinates":[[[[-47.97284914,-25.19660008],[-47.97304531,-25.19650586],[-47.97279418,-25.19616374],[-47.97281903,-25.1961159],[-47.97295987,-25.19584479],[-47.97314816,-25.19525739],[-47.97244075,-25.19446656],[-47.97086852,-25.19257295],[-47.96934019,-25.19105717],[-47.96845278,-25.19022285],[-47.96790979,-25.18928692],[-47.96698698,-25.18842174],[-47.96588853,-25.18746539],[-47.96535856,-25.18706573],[-47.9653529,-25.18707272],[-47.96436079,-25.18561631],[-47.96126073,-25.18316314],[-47.96052193,-25.18309409],[-47.95950684,-25.18303057],[-47.95847556,-25.18229662],[-47.95808761,-25.18115656],[-47.95804217,-25.18102303],[-47.95801706,-25.18094926],[-47.95792235,-25.18067092],[-47.95788046,-25.18054781],[-47.95441026,-25.17801803],[-47.95361777,-25.1773517],[-47.95346439,-25.17722273],[-47.95299486,-25.17682794],[-47.951683,-25.17572487],[-47.95149323,-25.17576019],[-47.95117665,-25.17545387],[-47.95088252,-25.17518785],[-47.95072035,-25.17504118],[-47.94907844,-25.17355611],[-47.94207154,-25.16776901],[-47.94089215,-25.16631977],[-47.93973089,-25.16562447],[-47.93853621,-25.16518126],[-47.93852537,-25.16518055],[-47.93765457,-25.16512367],[-47.93727125,-25.16509863],[-47.93625847,-25.16565752],[-47.93595526,-25.16613202],[-47.93669652,-25.16645249],[-47.94237036,-25.17031242],[-47.94264191,-25.17057232],[-47.94302463,-25.17085789],[-47.94441083,-25.17212576],[-47.94675751,-25.17386798],[-47.94834706,-25.17513175],[-47.94883917,-25.17586219],[-47.94952862,-25.17634195],[-47.95063353,-25.17718354],[-47.95302244,-25.17926409],[-47.95391966,-25.17992473],[-47.95523833,-25.18119383],[-47.95710654,-25.18276036],[-47.95973359,-25.18486687],[-47.9626467,-25.18758446],[-47.9649999,-25.18957297],[-47.96707914,-25.19144356],[-47.96881662,-25.1931976],[-47.97013408,-25.19440488],[-47.9705486,-25.19480577],[-47.9720297,-25.19579945],[-47.97202995,-25.19580964],[-47.97203802,-25.19581506],[-47.97204422,-25.19607281],[-47.97241827,-25.19633295],[-47.97284914,-25.19660008]]]]},"geometry_name":"the_geom","properties":{"DLEGNDMAPA":"Formação Pioneira Arbustiva-Herbácea sobre Sedimentos Marinhos Recentes","QAREA":102.35}},{"type":"Feature","id":"InventarioFlorestal2010.116324","geometry":{"type":"MultiPolygon","coordinates":[[[[-47.90392282,-25.1026351],[-47.90441041,-25.10192455],[-47.90617055,-25.10098844],[-47.90644302,-25.10084354],[-47.90651696,-25.10080421],[-47.90711076,-25.1004884],[-47.90719473,-25.10044374],[-47.90916415,-25.09762397],[-47.91108898,-25.09623128],[-47.91291015,-25.09377094],[-47.91395528,-25.09161109],[-47.91524472,-25.0832424],[-47.91481678,-25.07840169],[-47.91477793,-25.07676231],[-47.91411806,-25.07534906],[-47.91298358,-25.0737312],[-47.91294814,-25.07223437],[-47.91421103,-25.06935714],[-47.9155127,-25.06811928],[-47.91863622,-25.06777261],[-47.91959391,-25.06733887],[-47.91995305,-25.06717621],[-47.92014442,-25.06701843],[-47.92049458,-25.06672972],[-47.92054718,-25.06664321],[-47.92048028,-25.06662288],[-47.91952348,-25.06630441],[-47.91928383,-25.06631426],[-47.91886974,-25.06628572],[-47.91872537,-25.0662453],[-47.9185148,-25.06613291],[-47.91840535,-25.0661152],[-47.91683282,-25.06586077],[-47.91547856,-25.06527694],[-47.91435966,-25.06519718],[-47.91213388,-25.06554611],[-47.91134992,-25.06545976],[-47.91043989,-25.06476542],[-47.90997646,-25.06406231],[-47.90899814,-25.06378645],[-47.908962,-25.06367524],[-47.90859681,-25.06354108],[-47.90817325,-25.06338548],[-47.90750351,-25.06336275],[-47.90582749,-25.0635141],[-47.90406144,-25.06427996],[-47.90396879,-25.06442393],[-47.90319943,-25.06561948],[-47.90164455,-25.07073702],[-47.9019518,-25.074292],[-47.901971,-25.07510556],[-47.90147026,-25.07755717],[-47.9013117,-25.08030732],[-47.90135488,-25.08213784],[-47.90141764,-25.0824405],[-47.90136405,-25.08252642],[-47.90136688,-25.08264631],[-47.90153853,-25.08518651],[-47.90284612,-25.08851841],[-47.90355458,-25.09013241],[-47.9040397,-25.09175078],[-47.90441317,-25.09337134],[-47.90444681,-25.09479507],[-47.90436397,-25.0960176],[-47.90413227,-25.10039704],[-47.90415871,-25.10151569],[-47.90392282,-25.1026351]]]]},"geometry_name":"the_geom","properties":{"DLEGNDMAPA":"Formação Pioneira Arbustiva-Herbácea sobre Sedimentos Marinhos Recentes","QAREA":455.18}}],"crs":{"type":"name","properties":{"name":"urn:ogc:def:crs:EPSG::4674"}}}