{"type":"FeatureCollection","totalFeatures":615,"features":[{"type":"Feature","id":"InventarioFlorestal2001.75334","geometry":{"type":"MultiPolygon","coordinates":[[[[-48.07556147,-25.28276482],[-48.07648359,-25.2832774],[-48.07739186,-25.28317033],[-48.07778159,-25.28273775],[-48.0765294,-25.28278401],[-48.0761718,-25.28140217],[-48.07503925,-25.28116345],[-48.07468568,-25.28032232],[-48.07345274,-25.28001981],[-48.07279983,-25.27891014],[-48.07178552,-25.27799409],[-48.07145621,-25.27826559],[-48.07228959,-25.27964145],[-48.07344125,-25.28049843],[-48.07433969,-25.28128859],[-48.07556147,-25.28276482]]]]},"geometry_name":"the_geom","properties":{"DFITFS":"Formação Arbórea / Arbustiva-herbácea sobre Sedimentos Marinhos Recentes","VAREA":6.43}},{"type":"Feature","id":"InventarioFlorestal2001.75335","geometry":{"type":"MultiPolygon","coordinates":[[[[-48.06592843,-25.27381813],[-48.06834759,-25.27585243],[-48.06867438,-25.27523985],[-48.06786633,-25.27463051],[-48.06776717,-25.27403527],[-48.06732155,-25.27369108],[-48.06750098,-25.27330773],[-48.0679692,-25.27291723],[-48.06770457,-25.27264097],[-48.06717809,-25.27257906],[-48.06592843,-25.27381813]]]]},"geometry_name":"the_geom","properties":{"DFITFS":"Formação Arbórea / Arbustiva-herbácea sobre Sedimentos Marinhos Recentes","VAREA":3.74}},{"type":"Feature","id":"InventarioFlorestal2001.75336","geometry":{"type":"MultiPolygon","coordinates":[[[[-48.05379743,-25.26398077],[-48.05571516,-25.26561831],[-48.05577805,-25.26519964],[-48.05444339,-25.26366423],[-48.05379743,-25.26398077]]]]},"geometry_name":"the_geom","properties":{"DFITFS":"Formação Arbórea / Arbustiva-herbácea sobre Sedimentos Marinhos Recentes","VAREA":1.3}}],"crs":{"type":"name","properties":{"name":"urn:ogc:def:crs:EPSG::4674"}}}