{"type":"FeatureCollection","totalFeatures":690,"features":[{"type":"Feature","id":"InventarioFlorestal2020.51445","geometry":{"type":"MultiPolygon","coordinates":[[[[-48.06224904,-25.23984665],[-48.06232062,-25.23982385],[-48.0624136,-25.23977795],[-48.0624812,-25.23969574],[-48.06256192,-25.23961379],[-48.06258979,-25.23959358],[-48.06264206,-25.2395557],[-48.06272221,-25.23949761],[-48.0628283,-25.23945197],[-48.06286406,-25.23943432],[-48.06292127,-25.23940607],[-48.06303905,-25.23942035],[-48.06310292,-25.23949324],[-48.0631665,-25.23957807],[-48.06323037,-25.23965096],[-48.06329424,-25.23972385],[-48.06337152,-25.23978508],[-48.06347617,-25.23979909],[-48.06359452,-25.23978951],[-48.06370033,-25.23975581],[-48.06380614,-25.2397221],[-48.06391108,-25.23972419],[-48.06401546,-25.23975014],[-48.0640528,-25.23983444],[-48.06408986,-25.23993067],[-48.06418083,-25.23996829],[-48.06428691,-25.23995837],[-48.0642955,-25.2399529],[-48.06437439,-25.23989803],[-48.06445363,-25.23982904],[-48.06453252,-25.23977417],[-48.06462726,-25.2397055],[-48.06470683,-25.23962241],[-48.06475539,-25.23953871],[-48.06478979,-25.23939829],[-48.06480835,-25.23927166],[-48.06484174,-25.23917354],[-48.06485962,-25.23907512],[-48.06487784,-25.23896259],[-48.06488055,-25.23884976],[-48.06491462,-25.23872344],[-48.06494801,-25.23862532],[-48.06496622,-25.2385128],[-48.0649686,-25.23841407],[-48.06497131,-25.23830123],[-48.06497368,-25.2382025],[-48.06502224,-25.2381188],[-48.0650863,-25.23803541],[-48.06513486,-25.23795171],[-48.06518341,-25.23786801],[-48.06523265,-25.2377561],[-48.06525053,-25.23765768],[-48.06526841,-25.23755925],[-48.06527078,-25.23746052],[-48.06521045,-25.23738877],[-48.06513427,-25.23733081],[-48.06502572,-25.23732865],[-48.06491649,-25.2373547],[-48.0648376,-25.23740958],[-48.0647587,-25.23746445],[-48.06469498,-25.23753374],[-48.06457024,-25.23755948],[-48.06446136,-25.23757143],[-48.06440748,-25.23754557],[-48.06437196,-25.23747727],[-48.0643268,-25.23739042],[-48.06428164,-25.23730358],[-48.06425223,-25.23721705],[-48.06422315,-25.2371162],[-48.06415115,-25.23706141],[-48.06414582,-25.23705736],[-48.06405275,-25.23699821],[-48.0639429,-25.2369817],[-48.06384914,-25.23695119],[-48.06375538,-25.23692068],[-48.06364622,-25.23687553],[-48.06355281,-25.2368307],[-48.06345939,-25.23678587],[-48.0634152,-25.23674387],[-48.06336626,-25.23672911],[-48.06317322,-25.23657009],[-48.0630452,-25.23643623],[-48.06294284,-25.23632676],[-48.06290414,-25.23628176],[-48.06282794,-25.23619317],[-48.06265741,-25.23618978],[-48.06261662,-25.23624865],[-48.06262663,-25.23630001],[-48.06263998,-25.23636848],[-48.06280324,-25.23649269],[-48.06282053,-25.236501],[-48.06289752,-25.23657415],[-48.06299059,-25.2366333],[-48.06308332,-25.23670677],[-48.06316065,-25.2367656],[-48.06323763,-25.23683876],[-48.06333105,-25.23688359],[-48.06340838,-25.23694242],[-48.0635018,-25.23698725],[-48.06356304,-25.23706009],[-48.06364037,-25.23711893],[-48.06370162,-25.23719177],[-48.06377895,-25.23725061],[-48.06385628,-25.23730944],[-48.06390374,-25.23733222],[-48.0639375,-25.2374199],[-48.06399784,-25.23749165],[-48.06407368,-25.23756372],[-48.06416367,-25.23769251],[-48.06422366,-25.23777837],[-48.06426815,-25.23786392],[-48.06432814,-25.23794978],[-48.06437263,-25.23803533],[-48.06441712,-25.23812088],[-48.06442991,-25.23823402],[-48.06445855,-25.23833337],[-48.06447169,-25.23843241],[-48.06449999,-25.23854586],[-48.06454414,-25.23864552],[-48.06454176,-25.23874425],[-48.0645549,-25.23884328],[-48.06455252,-25.23894202],[-48.06455015,-25.23904075],[-48.06456295,-25.23915389],[-48.06456057,-25.23925262],[-48.06452718,-25.23935073],[-48.06446346,-25.23942002],[-48.0644159,-25.2394531],[-48.06431841,-25.23945116],[-48.06420822,-25.23944897],[-48.06409802,-25.23944678],[-48.06403678,-25.23937394],[-48.06405527,-25.23925971],[-48.06408882,-25.23917443],[-48.06410697,-25.23907452],[-48.06412512,-25.23897461],[-48.06415867,-25.23888933],[-48.06417717,-25.23877511],[-48.06417958,-25.23867488],[-48.06418233,-25.23856034],[-48.06415291,-25.23847381],[-48.06413958,-25.23837328],[-48.06411016,-25.23828675],[-48.06406501,-25.2381999],[-48.06404475,-25.23817581],[-48.06402881,-25.2381031],[-48.06399146,-25.2380188],[-48.063941,-25.23793424],[-48.06387713,-25.23786134],[-48.06377477,-25.23775188],[-48.06372402,-25.23769396],[-48.0637109,-25.23767898],[-48.06364703,-25.23760609],[-48.06358316,-25.2375332],[-48.06351987,-25.23743644],[-48.06345629,-25.23735162],[-48.0633927,-25.2372668],[-48.06338753,-25.23726089],[-48.06336327,-25.23725486],[-48.06335043,-25.23726881],[-48.0633409,-25.23727918],[-48.06329858,-25.23732519],[-48.06331191,-25.23742573],[-48.0633095,-25.23752595],[-48.06327595,-25.23761123],[-48.06324241,-25.23769651],[-48.06319311,-25.23778147],[-48.06315922,-25.23788107],[-48.06313929,-25.23791542],[-48.06305336,-25.23795239],[-48.06295788,-25.23799346],[-48.06286274,-25.23802022],[-48.06275186,-25.23804666],[-48.06257732,-25.23810048],[-48.06248184,-25.23814156],[-48.0623713,-25.23815368],[-48.06227582,-25.23819476],[-48.06216563,-25.23819256],[-48.06207049,-25.23821932],[-48.06194456,-25.23821681],[-48.06181863,-25.2382143],[-48.06170843,-25.23821211],[-48.0615979,-25.23822424],[-48.06150241,-25.23826531],[-48.06139119,-25.23830607],[-48.06127996,-25.23834682],[-48.06115265,-25.23840159],[-48.06112285,-25.23841881],[-48.06108294,-25.23842705],[-48.06097241,-25.23843917],[-48.06087727,-25.23846592],[-48.06073491,-25.23849174],[-48.06060863,-25.23850355],[-48.06049844,-25.23850135],[-48.06040537,-25.2384422],[-48.06032838,-25.23836905],[-48.06023531,-25.2383099],[-48.06015798,-25.23825106],[-48.06009674,-25.23817822],[-48.06001941,-25.23811938],[-48.05994208,-25.23806054],[-48.05986475,-25.23800171],[-48.05978777,-25.23792855],[-48.05971044,-25.23786971],[-48.05964954,-25.23778255],[-48.05965195,-25.23768233],[-48.05965437,-25.23758211],[-48.05965747,-25.23745325],[-48.05965988,-25.23735303],[-48.05967804,-25.23725312],[-48.05969654,-25.23713889],[-48.05969895,-25.23703867],[-48.05970205,-25.23690982],[-48.05968872,-25.23680928],[-48.05964357,-25.23672243],[-48.05959466,-25.23671508],[-48.05957229,-25.23668955],[-48.05956151,-25.23667724],[-48.05951078,-25.23666463],[-48.05945714,-25.23665129],[-48.05935105,-25.23669692],[-48.05925807,-25.23674282],[-48.05916539,-25.23677678],[-48.05904819,-25.23673864],[-48.05905049,-25.23664319],[-48.05909185,-25.23656045],[-48.05918483,-25.23651456],[-48.05925214,-25.23644428],[-48.05930662,-25.2363618],[-48.05933516,-25.23626688],[-48.05930911,-25.23622323],[-48.0592847,-25.23618231],[-48.05920771,-25.23610916],[-48.05915725,-25.23602459],[-48.05909685,-25.23593225],[-48.05909396,-25.23592784],[-48.05908987,-25.23592394],[-48.05901698,-25.23585468],[-48.05897277,-25.23580664],[-48.05887822,-25.23580475],[-48.05881353,-25.23587509],[-48.05881112,-25.23597531],[-48.0588087,-25.23607553],[-48.05882203,-25.23617607],[-48.05883536,-25.2362766],[-48.05883295,-25.23637683],[-48.05883053,-25.23647705],[-48.05884248,-25.23663485],[-48.05885581,-25.23673539],[-48.05886879,-25.23685024],[-48.05888212,-25.23695078],[-48.05891084,-25.23706595],[-48.05890843,-25.23716617],[-48.05890601,-25.23726639],[-48.0589036,-25.23736661],[-48.05890119,-25.23746683],[-48.05889877,-25.23756706],[-48.05889601,-25.2376816],[-48.0588936,-25.23778182],[-48.05889119,-25.23788204],[-48.05888843,-25.23799658],[-48.05890176,-25.23809712],[-48.05893117,-25.23818365],[-48.05899172,-25.23828513],[-48.05908479,-25.23834428],[-48.05911593,-25.23835922],[-48.05947488,-25.23849529],[-48.05956796,-25.23855444],[-48.05966137,-25.23859928],[-48.0597387,-25.23865811],[-48.05983212,-25.23870295],[-48.05992553,-25.23874778],[-48.06001895,-25.23879262],[-48.06012776,-25.23885208],[-48.06022152,-25.2388826],[-48.06031494,-25.23892743],[-48.06047098,-25.23898783],[-48.06065781,-25.2390775],[-48.06075123,-25.23912233],[-48.06084499,-25.23915285],[-48.0609384,-25.23919768],[-48.06103216,-25.2392282],[-48.06112524,-25.23928735],[-48.06121865,-25.23933218],[-48.06132747,-25.23939165],[-48.06142054,-25.2394508],[-48.06151396,-25.23949563],[-48.06160703,-25.23955478],[-48.06170045,-25.23959961],[-48.06179421,-25.23963013],[-48.06188763,-25.23967496],[-48.06193675,-25.23969853],[-48.06199354,-25.23975666],[-48.06207924,-25.23981783],[-48.06216943,-25.23986578],[-48.06221482,-25.23985755],[-48.06224904,-25.23984665]]]]},"geometry_name":"the_geom","properties":{"FITOFISION":"Formação Pioneira com Influência Fluviomarinha","IBGE":"Pf","AREAHA":10.4236660053}},{"type":"Feature","id":"InventarioFlorestal2020.51446","geometry":{"type":"MultiPolygon","coordinates":[[[[-48.0575617,-25.23288487],[-48.05759313,-25.23290624],[-48.05763522,-25.23293488],[-48.05773036,-25.23296951],[-48.05783827,-25.23297166],[-48.05794619,-25.23297381],[-48.05802881,-25.23303002],[-48.05807467,-25.23311822],[-48.05810827,-25.23321709],[-48.05812963,-25.23332663],[-48.05813926,-25.23342503],[-48.05814888,-25.23352342],[-48.058207,-25.23360096],[-48.05826511,-25.2336785],[-48.05835972,-25.23373494],[-48.05845433,-25.23379138],[-48.05856225,-25.23379353],[-48.05868242,-25.23378502],[-48.05879164,-25.23373264],[-48.05886516,-25.23366863],[-48.05892695,-25.23359348],[-48.0589898,-25.23347471],[-48.05908677,-25.233433],[-48.05917202,-25.23338014],[-48.05926899,-25.23333842],[-48.05936597,-25.23329671],[-48.05947467,-25.23326614],[-48.05957138,-25.23323533],[-48.05969155,-25.23322681],[-48.05981198,-25.23320739],[-48.05996838,-25.23318868],[-48.0601008,-25.23316949],[-48.06020872,-25.23317164],[-48.06031716,-25.23315198],[-48.06043759,-25.23313255],[-48.06057001,-25.23311337],[-48.06069018,-25.23310485],[-48.06079835,-25.23309609],[-48.06089507,-25.23306528],[-48.0610155,-25.23304586],[-48.06111221,-25.23301505],[-48.06122065,-25.23299538],[-48.06130589,-25.23294252],[-48.0614026,-25.23291171],[-48.06151131,-25.23288114],[-48.06162001,-25.23285057],[-48.06172871,-25.23282],[-48.06184888,-25.23281148],[-48.06195705,-25.23280272],[-48.06201149,-25.23273652],[-48.06201884,-25.23272757],[-48.06201185,-25.23269569],[-48.06200683,-25.23267278],[-48.06194821,-25.23267161],[-48.06184003,-25.23268037],[-48.0617316,-25.23270003],[-48.06162368,-25.23269789],[-48.06152697,-25.23272869],[-48.06141905,-25.23272655],[-48.0613114,-25.23271349],[-48.06120375,-25.23270044],[-48.06109584,-25.23269829],[-48.06098818,-25.23268524],[-48.06088106,-25.23265037],[-48.0607734,-25.23263731],[-48.06066549,-25.23263517],[-48.06055758,-25.23263302],[-48.06045019,-25.23260906],[-48.06036757,-25.23255285],[-48.06024924,-25.23248503],[-48.06017887,-25.23241816],[-48.06009625,-25.23236196],[-48.06001363,-25.23230575],[-48.05993101,-25.23224955],[-48.05983613,-25.23220402],[-48.05971702,-25.23216891],[-48.0596344,-25.23211271],[-48.05953926,-25.23207808],[-48.05944412,-25.23204345],[-48.05933674,-25.23201949],[-48.05922882,-25.23201734],[-48.05908573,-25.23198175],[-48.05900311,-25.23192555],[-48.058933,-25.23184777],[-48.05883603,-25.23188949],[-48.05875052,-25.23195325],[-48.05865276,-25.23202769],[-48.05856751,-25.23208054],[-48.058482,-25.23214431],[-48.05838477,-25.23219693],[-48.05829952,-25.23224979],[-48.05821427,-25.23230265],[-48.05811704,-25.23235526],[-48.05804352,-25.23241927],[-48.05795827,-25.23247213],[-48.05784983,-25.23249179],[-48.05774139,-25.23251145],[-48.05764468,-25.23254226],[-48.05753598,-25.23257283],[-48.05745073,-25.23262568],[-48.05743611,-25.23273451],[-48.05746998,-25.23282247],[-48.0575526,-25.23287868],[-48.0575617,-25.23288487]]]]},"geometry_name":"the_geom","properties":{"FITOFISION":"Formação Pioneira com Influência Fluviomarinha","IBGE":"Pf","AREAHA":4.11508759795}},{"type":"Feature","id":"InventarioFlorestal2020.51447","geometry":{"type":"MultiPolygon","coordinates":[[[[-48.06003517,-25.22988818],[-48.05998666,-25.22993743],[-48.0599366,-25.23002373],[-48.05992198,-25.23013255],[-48.05990763,-25.23023047],[-48.05990527,-25.23032862],[-48.05991411,-25.23045974],[-48.05991174,-25.23055789],[-48.05994561,-25.23064586],[-48.05999148,-25.23073406],[-48.0600741,-25.23079027],[-48.0601687,-25.23084671],[-48.06025133,-25.23090291],[-48.0603462,-25.23094845],[-48.06044055,-25.23101579],[-48.0605229,-25.2310829],[-48.06060526,-25.23115001],[-48.06069987,-25.23120645],[-48.06079474,-25.23125199],[-48.06088936,-25.23130843],[-48.06099648,-25.23134329],[-48.06109135,-25.23138883],[-48.06118597,-25.23144527],[-48.06128084,-25.2314908],[-48.06138797,-25.23152567],[-48.06151933,-25.23155011],[-48.06162672,-25.23157407],[-48.06173464,-25.23157621],[-48.06182977,-25.23161084],[-48.06185139,-25.23170947],[-48.06177788,-25.23177348],[-48.06166918,-25.23180405],[-48.06156126,-25.2318019],[-48.06145387,-25.23177794],[-48.06137125,-25.23172174],[-48.06127664,-25.2316653],[-48.06118151,-25.23163067],[-48.06106239,-25.23159557],[-48.06096725,-25.23156094],[-48.06080122,-25.23148125],[-48.06069436,-25.23143548],[-48.06059922,-25.23140085],[-48.0605166,-25.23134465],[-48.06043398,-25.23128845],[-48.06036362,-25.23122158],[-48.06026953,-25.23114333],[-48.06017492,-25.23108688],[-48.06008031,-25.23103044],[-48.0599857,-25.230974],[-48.05990308,-25.2309178],[-48.05979569,-25.23089384],[-48.05969898,-25.23092465],[-48.05960201,-25.23096636],[-48.05952849,-25.23103037],[-48.05953812,-25.23112876],[-48.05958398,-25.23121696],[-48.05962984,-25.23130517],[-48.0596757,-25.23139337],[-48.05973382,-25.23147091],[-48.05976769,-25.23155888],[-48.05980156,-25.23164684],[-48.05985889,-25.2317571],[-48.05992899,-25.23183488],[-48.05999936,-25.23190175],[-48.06009371,-25.23196909],[-48.06018884,-25.23200372],[-48.06028372,-25.23204926],[-48.06037859,-25.23209479],[-48.06048493,-25.23216238],[-48.06059206,-25.23219725],[-48.0607229,-25.2322435],[-48.06092543,-25.23230209],[-48.06103229,-25.23234786],[-48.06113942,-25.23238273],[-48.06125827,-25.23242874],[-48.06137792,-25.23244203],[-48.06149782,-25.23244442],[-48.06161799,-25.2324359],[-48.0617147,-25.23240509],[-48.06181141,-25.23237428],[-48.06192011,-25.23234371],[-48.06200588,-25.23226903],[-48.06206793,-25.23218298],[-48.06216464,-25.23215217],[-48.06227203,-25.23217613],[-48.0623059,-25.23226409],[-48.06231527,-25.23237339],[-48.06231336,-25.23245285],[-48.06231291,-25.23247155],[-48.06235078,-25.23248387],[-48.06242004,-25.23250642],[-48.06248183,-25.23243126],[-48.06248419,-25.23233311],[-48.06248681,-25.23222405],[-48.06248943,-25.23211498],[-48.06249179,-25.23201683],[-48.06251813,-25.23191915],[-48.06261484,-25.23188834],[-48.06272328,-25.23186867],[-48.06283198,-25.2318381],[-48.06287005,-25.23175157],[-48.06283618,-25.2316636],[-48.06276686,-25.23155311],[-48.06276254,-25.23154566],[-48.06268345,-25.23152962],[-48.06256407,-25.23150543],[-48.06245668,-25.23148147],[-48.06234903,-25.23146841],[-48.06224138,-25.23145536],[-48.06210896,-25.23147455],[-48.06200105,-25.2314724],[-48.0618934,-25.23145935],[-48.06178548,-25.2314572],[-48.06167783,-25.23144415],[-48.06157018,-25.23143109],[-48.06146306,-25.23139623],[-48.06135619,-25.23135045],[-48.06124907,-25.23131559],[-48.06115419,-25.23127005],[-48.06105906,-25.23123542],[-48.06096418,-25.23118989],[-48.06088156,-25.23113369],[-48.06079947,-25.23105567],[-48.06072936,-25.2309779],[-48.06065926,-25.23090012],[-48.0606134,-25.23081192],[-48.06056753,-25.23072371],[-48.06053366,-25.23063575],[-48.06052404,-25.23053735],[-48.0605264,-25.2304392],[-48.06048054,-25.23035099],[-48.06041069,-25.23026231],[-48.06035258,-25.23018477],[-48.06028248,-25.230107],[-48.0602486,-25.23001903],[-48.06022699,-25.2299204],[-48.06016887,-25.22984286],[-48.06006044,-25.22986252],[-48.0600531,-25.22986997],[-48.06003517,-25.22988818]]]]},"geometry_name":"the_geom","properties":{"FITOFISION":"Formação Pioneira com Influência Fluviomarinha","IBGE":"Pf","AREAHA":3.47441671814}}],"crs":{"type":"name","properties":{"name":"urn:ogc:def:crs:EPSG::4674"}}}