{"type":"FeatureCollection","totalFeatures":386014,"features":[{"type":"Feature","id":"InventarioFlorestal2020.1","geometry":{"type":"MultiPolygon","coordinates":[[[[-49.2111462,-24.70301705],[-49.2112807,-24.70304083],[-49.21141306,-24.70303484],[-49.21141638,-24.70303382],[-49.21127251,-24.70300684],[-49.21102267,-24.70292356],[-49.21083556,-24.70284651],[-49.21097393,-24.70294739],[-49.2111462,-24.70301705]]]]},"geometry_name":"the_geom","properties":{"FITOFISION":"Floresta Ombrófila Densa","IBGE":"D","AREAHA":0.02126715257}},{"type":"Feature","id":"InventarioFlorestal2020.2","geometry":{"type":"MultiPolygon","coordinates":[[[[-48.66528181,-24.702497],[-48.66539942,-24.70249883],[-48.66549809,-24.70246454],[-48.6655971,-24.70241234],[-48.66569544,-24.70239596],[-48.66579445,-24.70234377],[-48.66589379,-24.70227366],[-48.66601274,-24.70220387],[-48.66601474,-24.70209643],[-48.66597721,-24.70200628],[-48.66595928,-24.70191644],[-48.66590248,-24.70180809],[-48.66584534,-24.70171764],[-48.66574934,-24.70160867],[-48.6656922,-24.70151822],[-48.66561547,-24.70142747],[-48.66555833,-24.70133702],[-48.6655012,-24.70124657],[-48.665464,-24.70113852],[-48.66540812,-24.7010857],[-48.66536666,-24.70110118],[-48.66520851,-24.70117036],[-48.66509024,-24.70120435],[-48.66499123,-24.70125654],[-48.66491149,-24.70132695],[-48.66483175,-24.70139735],[-48.66477127,-24.70148597],[-48.6647108,-24.70157459],[-48.66470879,-24.70168203],[-48.66470679,-24.70178947],[-48.66470478,-24.70189692],[-48.66470244,-24.70202226],[-48.66472038,-24.7021121],[-48.66477751,-24.70220255],[-48.66489345,-24.70229392],[-48.66499045,-24.70234917],[-48.66508813,-24.7023686],[-48.6651652,-24.70244145],[-48.66528181,-24.702497]]]]},"geometry_name":"the_geom","properties":{"FITOFISION":"Floresta Ombrófila Densa","IBGE":"D","AREAHA":1.42065064816}},{"type":"Feature","id":"InventarioFlorestal2020.3","geometry":{"type":"MultiPolygon","coordinates":[[[[-48.67460348,-24.70235256],[-48.67462324,-24.70235286],[-48.67466962,-24.70227595],[-48.67469762,-24.70226266],[-48.67472018,-24.70228359],[-48.67473724,-24.70240097],[-48.67475301,-24.70241521],[-48.67480836,-24.70241495],[-48.67493893,-24.70235132],[-48.67522548,-24.70209443],[-48.67546802,-24.70196456],[-48.6755785,-24.70187362],[-48.67571516,-24.70178839],[-48.67572314,-24.70176455],[-48.67570642,-24.70173648],[-48.67560033,-24.70170798],[-48.67559584,-24.70169658],[-48.67575157,-24.70158442],[-48.67584605,-24.7014404],[-48.67589835,-24.7014409],[-48.67591897,-24.70134485],[-48.67594405,-24.70135571],[-48.67597386,-24.70140313],[-48.67599604,-24.70140345],[-48.67610016,-24.70124123],[-48.67617335,-24.70120382],[-48.6762314,-24.70114771],[-48.67623232,-24.70112191],[-48.67620318,-24.70108492],[-48.67626096,-24.7009666],[-48.67634589,-24.70087562],[-48.67641348,-24.70067376],[-48.67655191,-24.7004485],[-48.67655102,-24.70037148],[-48.67652861,-24.70032881],[-48.67650245,-24.70032011],[-48.67647754,-24.70033788],[-48.67633769,-24.70061068],[-48.67628391,-24.70062026],[-48.67608923,-24.70060234],[-48.67602974,-24.70061384],[-48.67596367,-24.70065177],[-48.67593381,-24.70071181],[-48.67595239,-24.70087549],[-48.67591741,-24.7009705],[-48.67584997,-24.70106869],[-48.67574956,-24.70117576],[-48.67565259,-24.70133272],[-48.67560932,-24.70137334],[-48.67556712,-24.70139919],[-48.6755061,-24.70139654],[-48.67547556,-24.70138682],[-48.67542021,-24.70133242],[-48.67526873,-24.70133753],[-48.67520507,-24.70136377],[-48.67505579,-24.70149801],[-48.67500873,-24.70156527],[-48.67501387,-24.70167844],[-48.67495308,-24.70186934],[-48.67499248,-24.70199167],[-48.67497695,-24.70204746],[-48.67492305,-24.70210196],[-48.67472472,-24.70210116],[-48.67469672,-24.70211231],[-48.67460602,-24.70224817],[-48.67460348,-24.70235256]]]]},"geometry_name":"the_geom","properties":{"FITOFISION":"Floresta Ombrófila Densa","IBGE":"D","AREAHA":1.02621834307}},{"type":"Feature","id":"InventarioFlorestal2020.4","geometry":{"type":"MultiPolygon","coordinates":[[[[-48.67373266,-24.70115473],[-48.67361471,-24.70117081],[-48.67349711,-24.70116899],[-48.6733795,-24.70116716],[-48.67324295,-24.70112922],[-48.67310574,-24.70112709],[-48.67294893,-24.70112466],[-48.67285026,-24.70115895],[-48.67278946,-24.70126548],[-48.67280739,-24.70135532],[-48.67286453,-24.70144577],[-48.67298081,-24.70151922],[-48.67307849,-24.70153865],[-48.67317549,-24.70159389],[-48.67327284,-24.70163122],[-48.67334991,-24.70170407],[-48.67340639,-24.70183033],[-48.67348313,-24.70192108],[-48.6735808,-24.70194051],[-48.67366054,-24.7018701],[-48.67368181,-24.70178087],[-48.6736838,-24.70167342],[-48.6736858,-24.70156598],[-48.6736878,-24.70145854],[-48.67374826,-24.70136992],[-48.67388614,-24.70133623],[-48.67402335,-24.70133836],[-48.67414096,-24.70134018],[-48.67425857,-24.70134201],[-48.67437618,-24.70134383],[-48.67447385,-24.70136326],[-48.67459113,-24.70138299],[-48.67472801,-24.70140302],[-48.67486522,-24.70140515],[-48.67500243,-24.70140727],[-48.67504329,-24.70131835],[-48.67502536,-24.70122851],[-48.67502735,-24.70112107],[-48.67506822,-24.70103214],[-48.67514829,-24.70094382],[-48.67520875,-24.70085519],[-48.67528849,-24.70078478],[-48.67534896,-24.70069616],[-48.67540942,-24.70060753],[-48.67548916,-24.70053712],[-48.67554962,-24.7004485],[-48.67564896,-24.70037839],[-48.67572903,-24.70029007],[-48.6758091,-24.70020175],[-48.67581109,-24.70009431],[-48.67579315,-24.70000447],[-48.67575561,-24.69991432],[-48.67571807,-24.69982418],[-48.67564133,-24.69973343],[-48.67560379,-24.69964329],[-48.67552671,-24.69957045],[-48.67548917,-24.6994803],[-48.67543236,-24.69937195],[-48.67537522,-24.6992815],[-48.67536461,-24.69925603],[-48.67523768,-24.69929728],[-48.67513934,-24.69931367],[-48.67502107,-24.69934766],[-48.67496061,-24.69943629],[-48.67490014,-24.69952491],[-48.67489814,-24.69963235],[-48.67489582,-24.6997577],[-48.67487455,-24.69984693],[-48.67485329,-24.69993616],[-48.67475362,-24.70002418],[-48.67465461,-24.70007638],[-48.67463335,-24.70016561],[-48.67465129,-24.70025545],[-48.67472803,-24.7003462],[-48.67480444,-24.70045486],[-48.67476357,-24.70054379],[-48.67466424,-24.7006139],[-48.6745845,-24.70068431],[-48.67448516,-24.70075442],[-48.67438616,-24.70080662],[-48.67426722,-24.70087642],[-48.67416821,-24.70092862],[-48.67404927,-24.70099843],[-48.67395027,-24.70105063],[-48.67383166,-24.70110253],[-48.67373266,-24.70115473]]]]},"geometry_name":"the_geom","properties":{"FITOFISION":"Floresta Ombrófila Densa","IBGE":"D","AREAHA":2.62056151965}},{"type":"Feature","id":"InventarioFlorestal2020.5","geometry":{"type":"MultiPolygon","coordinates":[[[[-48.6614473,-24.69928284],[-48.66148788,-24.69934774],[-48.6614911,-24.69929756],[-48.66148087,-24.69911031],[-48.66144517,-24.69891058],[-48.66137576,-24.69878693],[-48.66129624,-24.69869967],[-48.66121022,-24.69863522],[-48.66111705,-24.69860447],[-48.66109979,-24.69860333],[-48.66109407,-24.69858652],[-48.66105812,-24.6985855],[-48.66102362,-24.69861561],[-48.66100843,-24.69867322],[-48.66106134,-24.69872632],[-48.66122162,-24.69892112],[-48.6614473,-24.69928284]]]]},"geometry_name":"the_geom","properties":{"FITOFISION":"Floresta Ombrófila Densa","IBGE":"D","AREAHA":0.1439325901}}],"crs":{"type":"name","properties":{"name":"urn:ogc:def:crs:EPSG::4674"}}}