{"type": "Feature", "properties": {"fonte": "IBGE \u2014 limites estaduais 2024 (br_uf_2024)", "descricao": "Contorno de SP sem as divisas com outros estados (linha de costa)", "gerado_por": "scripts/gerar_linha_costa_sp.py"}, "geometry": {"type": "MultiLineString", "coordinates": [[[-48.0354147, -25.3568182], [-48.0374973, -25.3579998], [-48.0382198, -25.3570308], [-48.0368088, -25.3558577], [-48.0354147, -25.3568182]], [[-47.9561409, -25.2742599], [-47.9574836, -25.2726993], [-47.9525219, -25.272827], [-47.9530085, -25.2743726], [-47.9561409, -25.2742599]], [[-47.9147558, -25.1667392], [-47.9114211, -25.1628521], [-47.9100137, -25.163277], [-47.9090077, -25.1652846], [-47.9094816, -25.1670916], [-47.9117231, -25.1663575], [-47.9145047, -25.1672525], [-47.9147558, -25.1667392]], [[-47.8601528, -25.1328388], [-47.8606713, -25.1335577], [-47.8617782, -25.1330381], [-47.8621138, -25.1317837], [-47.8614635, -25.13085], [-47.8595608, -25.1317621], [-47.8601528, -25.1328388]], [[-47.8500255, -25.118106], [-47.8503959, -25.1202617], [-47.8494759, -25.1208905], [-47.8506552, -25.1214568], [-47.8524906, -25.1203327], [-47.8534793, -25.1225933], [-47.8562386, -25.1250072], [-47.8584605, -25.1244879], [-47.8614558, -25.1275617], [-47.8649762, -25.1282456], [-47.8651636, -25.1247285], [-47.866146, -25.1231906], [-47.8651449, -25.1218188], [-47.8618844, -25.1200706], [-47.8600069, -25.1205364], [-47.8586114, -25.11764], [-47.8551636, -25.1163011], [-47.85374, -25.1169699], [-47.8537357, -25.1160307], [-47.8529001, -25.115838], [-47.8504778, -25.1170694], [-47.8500255, -25.118106]], [[-46.6746575, -24.4839347], [-46.6715984, -24.4856534], [-46.6713848, -24.4886632], [-46.6762472, -24.4919968], [-46.6775361, -24.4909008], [-46.6765426, -24.4885933], [-46.6779366, -24.4847055], [-46.6771607, -24.4811598], [-46.6774336, -24.4779733], [-46.6759474, -24.4758825], [-46.676508, -24.4778991], [-46.6747694, -24.4783096], [-46.6741599, -24.4821411], [-46.6746575, -24.4839347]], [[-47.0310596, -24.4285256], [-47.0310596, -24.4285256]], [[-46.9941024, -24.4110231], [-46.9935023, -24.4110835], [-46.9941024, -24.4110231]], [[-47.0020603, -24.4106308], [-47.0033164, -24.40931], [-47.000434, -24.408544], [-47.0006262, -24.409965], [-47.0020603, -24.4106308]], [[-46.9996368, -24.4083476], [-46.9991775, -24.4081218], [-46.9996368, -24.4083476]], [[-47.0074406, -24.3961176], [-47.0074406, -24.3961176]], [[-46.9865717, -24.3843898], [-46.9885259, -24.3853104], [-46.988281, -24.3840268], [-46.9865717, -24.3843898]], [[-46.9839797, -24.3802819], [-46.9837629, -24.3814187], [-46.9847468, -24.3825103], [-46.9875936, -24.381542], [-46.986879, -24.3794379], [-46.9860256, -24.3799111], [-46.9848862, -24.3791737], [-46.9839797, -24.3802819]], [[-46.8068898, -24.374017], [-46.8053414, -24.3745644], [-46.8055944, -24.3759292], [-46.8080206, -24.3759439], [-46.8079535, -24.3744092], [-46.8068898, -24.374017]], [[-46.805073, -24.3751048], [-46.803282, -24.3737908], [-46.8039607, -24.3752986], [-46.805073, -24.3751048]], [[-47.0046526, -24.3674448], [-47.0052223, -24.3677749], [-47.0046526, -24.3674448]], [[-46.9805324, -24.3624878], [-46.9810397, -24.3626959], [-46.981175, -24.3616134], [-46.9795811, -24.3605287], [-46.9794821, -24.3619103], [-46.9805324, -24.3624878]], [[-46.9997478, -24.3495714], [-46.9997478, -24.3495714]], [[-46.8897614, -24.2541901], [-46.8904536, -24.2545425], [-46.8910428, -24.2538755], [-46.8897614, -24.2541901]], [[-46.690544, -24.2377243], [-46.6908749, -24.2365543], [-46.690544, -24.2377243]], [[-46.7924468, -24.1952267], [-46.7932665, -24.1936856], [-46.7916537, -24.1946733], [-46.7924468, -24.1952267]], [[-44.723769764438934, -23.36770695661397], [-44.7239872, -23.3686069], [-44.7260315, -23.3698578], [-44.728123, -23.370277], [-44.7320108, -23.3690453], [-44.7351744, -23.3695482], [-44.7349536, -23.3687215], [-44.7361388, -23.3678696], [-44.7418387, -23.3658805], [-44.7464463, -23.3674864], [-44.7484156, -23.3661845], [-44.7505718, -23.3660388], [-44.7595079, -23.3702262], [-44.7632013, -23.3707443], [-44.7660399, -23.3726292], [-44.769232, -23.3722793], [-44.7850628, -23.3780342], [-44.7851625, -23.3771306], [-44.7831964, -23.3755251], [-44.7826279, -23.3739208], [-44.7842397, -23.3731479], [-44.7844586, -23.3718446], [-44.7837364, -23.3714495], [-44.7845657, -23.3704665], [-44.7871088, -23.3696729], [-44.7878224, -23.3712285], [-44.7892769, -23.3716481], [-44.7893032, -23.370128], [-44.790887, -23.3690785], [-44.7946811, -23.3703447], [-44.7965921, -23.3689812], [-44.800098, -23.3704613], [-44.8021546, -23.373127], [-44.8022039, -23.3738468], [-44.7996733, -23.3755984], [-44.8061261, -23.3791766], [-44.808436, -23.3790112], [-44.8165803, -23.38141], [-44.8191171, -23.3812067], [-44.826407, -23.3837788], [-44.8269312, -23.384785], [-44.8255969, -23.3860836], [-44.8264406, -23.3876147], [-44.8296151, -23.3875918], [-44.8296997, -23.3855168], [-44.8319935, -23.3849453], [-44.8345398, -23.3869793], [-44.8360694, -23.3874116], [-44.838573, -23.3864527], [-44.8402694, -23.3884036], [-44.8420106, -23.3881448], [-44.8441802, -23.3872616], [-44.8430062, -23.3848053], [-44.8436791, -23.3830655], [-44.8422285, -23.3806974], [-44.8385705, -23.3793993], [-44.8384582, -23.3769246], [-44.8400047, -23.3751725], [-44.8368354, -23.3722938], [-44.8368651, -23.3695881], [-44.8431881, -23.363924], [-44.8498705, -23.3610747], [-44.8651678, -23.3569588], [-44.8667729, -23.3580478], [-44.8705685, -23.3587342], [-44.8706726, -23.3602444], [-44.8744384, -23.3629361], [-44.8740573, -23.3639729], [-44.8747311, -23.3644119], [-44.8764638, -23.3628797], [-44.8822311, -23.3633165], [-44.8849367, -23.3667854], [-44.8847834, -23.3697528], [-44.8889923, -23.3724355], [-44.8906838, -23.3724796], [-44.8920526, -23.3710765], [-44.8921704, -23.3698204], [-44.8900712, -23.3688115], [-44.8873068, -23.364964], [-44.8891397, -23.3596666], [-44.8907438, -23.3590191], [-44.8881169, -23.356213], [-44.8876019, -23.3540256], [-44.8840173, -23.3513059], [-44.8826319, -23.3515604], [-44.8821016, -23.3493314], [-44.882841, -23.346394], [-44.8876425, -23.3387171], [-44.9006559, -23.3348636], [-44.9080106, -23.3340716], [-44.9089243, -23.3355632], [-44.9120355, -23.3367253], [-44.912344, -23.3375018], [-44.9109635, -23.3386046], [-44.9119153, -23.3409772], [-44.9132887, -23.3420355], [-44.9128958, -23.342857], [-44.9210299, -23.3509196], [-44.9254154, -23.3532284], [-44.9269025, -23.3524585], [-44.9421504, -23.3570614], [-44.9438415, -23.360287], [-44.9484896, -23.3640644], [-44.9483733, -23.3663858], [-44.9475862, -23.367109], [-44.9506853, -23.3727234], [-44.9492835, -23.3741657], [-44.9493341, -23.3786443], [-44.9519343, -23.3795745], [-44.955702, -23.3789491], [-44.9607634, -23.3804544], [-44.961661, -23.3818138], [-44.9603994, -23.3831705], [-44.9631687, -23.384737], [-44.9630947, -23.3863447], [-44.9654631, -23.3870997], [-44.9668378, -23.3863214], [-44.9717599, -23.3895316], [-44.9726149, -23.3919349], [-44.9721292, -23.3929197], [-44.9708688, -23.3925978], [-44.9706115, -23.3939457], [-44.9737396, -23.3950736], [-44.977653, -23.4006219], [-44.9812156, -23.4011615], [-44.9806154, -23.3997975], [-44.9833552, -23.3971173], [-44.986674, -23.3978069], [-44.9880431, -23.3991357], [-44.9899944, -23.3990595], [-44.9927748, -23.3973092], [-45.0088565, -23.4059326], [-45.0095854, -23.4069822], [-45.0084111, -23.408196], [-45.0089813, -23.4124719], [-45.0101382, -23.4133611], [-45.0124903, -23.4130623], [-45.0116187, -23.4157562], [-45.0135206, -23.4182588], [-45.0230138, -23.4187483], [-45.0221877, -23.4149246], [-45.023046, -23.4142264], [-45.0241083, -23.4137711], [-45.030451, -23.4150017], [-45.0312701, -23.4138301], [-45.032271, -23.4138516], [-45.0390491, -23.4199443], [-45.0393666, -23.4211326], [-45.0384215, -23.4215884], [-45.0388709, -23.4230715], [-45.0420005, -23.4219915], [-45.0436388, -23.4235279], [-45.0439406, -23.4256091], [-45.0479514, -23.4252855], [-45.0480211, -23.4236351], [-45.044948, -23.4207619], [-45.0457656, -23.4192245], [-45.048903, -23.4173455], [-45.0545318, -23.4168386], [-45.0592393, -23.4184902], [-45.0613964, -23.4202216], [-45.0646306, -23.4263485], [-45.0639153, -23.4278983], [-45.0615027, -23.4277692], [-45.0593866, -23.4300907], [-45.0603591, -23.4312891], [-45.0643201, -23.4322148], [-45.0651995, -23.4311594], [-45.0686085, -23.432609], [-45.0693773, -23.4371313], [-45.0671639, -23.4467816], [-45.065033, -23.4505166], [-45.0600439, -23.4563112], [-45.0551072, -23.4591894], [-45.0547167, -23.4581074], [-45.0502269, -23.4565512], [-45.048396, -23.4534624], [-45.0452793, -23.4509989], [-45.0444663, -23.4493588], [-45.0421161, -23.4493968], [-45.0375774, -23.4478792], [-45.0354968, -23.449338], [-45.0362795, -23.4519591], [-45.0348834, -23.4596695], [-45.029962, -23.4592286], [-45.0292219, -23.4611577], [-45.0282866, -23.4613465], [-45.022078, -23.4593274], [-45.0184744, -23.4598385], [-45.017945, -23.4608555], [-45.020202, -23.4619553], [-45.0219072, -23.4613677], [-45.0265121, -23.4631706], [-45.0304713, -23.4626704], [-45.0315133, -23.4633252], [-45.0316036, -23.4650865], [-45.0324471, -23.4656664], [-45.032583, -23.4644741], [-45.03504, -23.464536], [-45.0383843, -23.4622002], [-45.0434153, -23.4623094], [-45.0445646, -23.4611009], [-45.0465732, -23.4613551], [-45.0514595, -23.4656173], [-45.0521548, -23.4679773], [-45.0533611, -23.4678538], [-45.0534966, -23.4655691], [-45.0562677, -23.4649241], [-45.0583922, -23.465712], [-45.0577618, -23.4662319], [-45.0583619, -23.4677317], [-45.0605879, -23.4665246], [-45.0626812, -23.4679464], [-45.0708353, -23.4786259], [-45.0706998, -23.4801642], [-45.0716894, -23.480795], [-45.0736901, -23.4854517], [-45.0742822, -23.4889269], [-45.0726431, -23.4932912], [-45.0667985, -23.4928993], [-45.0675655, -23.4948694], [-45.0734616, -23.4989928], [-45.0737673, -23.5008811], [-45.0769389, -23.5025474], [-45.077219, -23.5048451], [-45.0761925, -23.5053786], [-45.076879, -23.5068784], [-45.0810538, -23.5090345], [-45.0804422, -23.5107034], [-45.0813922, -23.5127964], [-45.0797734, -23.513119], [-45.0810567, -23.5149927], [-45.0802358, -23.5165503], [-45.0815989, -23.5185011], [-45.0817543, -23.5215421], [-45.0832827, -23.5214704], [-45.0841707, -23.5203899], [-45.0834323, -23.5189908], [-45.083771, -23.5171735], [-45.0850176, -23.5168904], [-45.0859923, -23.5131447], [-45.0852469, -23.5116036], [-45.0854747, -23.5061028], [-45.0830215, -23.4979506], [-45.0833508, -23.4961175], [-45.0876433, -23.49353], [-45.0985862, -23.4927214], [-45.0995786, -23.4944671], [-45.1016172, -23.4950093], [-45.1032496, -23.4975753], [-45.1044262, -23.4980979], [-45.1047054, -23.4968457], [-45.1028237, -23.4951721], [-45.1037393, -23.4916619], [-45.1029214, -23.4900612], [-45.1067935, -23.4886937], [-45.1072684, -23.4927002], [-45.1102844, -23.4955217], [-45.1169517, -23.498322], [-45.11917, -23.5012384], [-45.1205561, -23.5004974], [-45.1225994, -23.5010853], [-45.1240668, -23.5028795], [-45.1239065, -23.5038408], [-45.1224306, -23.5034983], [-45.1232848, -23.5041666], [-45.1220693, -23.5042284], [-45.1223327, -23.5052405], [-45.1167466, -23.5050033], [-45.1135462, -23.5077532], [-45.1120522, -23.5080299], [-45.1115535, -23.5068664], [-45.1075322, -23.5079064], [-45.107204, -23.5098704], [-45.1101443, -23.5112829], [-45.1105461, -23.5128357], [-45.1095938, -23.5147156], [-45.1077331, -23.5137473], [-45.1069218, -23.5143433], [-45.1088617, -23.517018], [-45.1074669, -23.5174689], [-45.1075565, -23.5200372], [-45.1057174, -23.523646], [-45.1126631, -23.5264433], [-45.1135867, -23.5254912], [-45.1122804, -23.5206401], [-45.113169, -23.5196207], [-45.1160984, -23.5190113], [-45.1204105, -23.5213787], [-45.1217855, -23.5197673], [-45.1210843, -23.5176755], [-45.121706, -23.5163267], [-45.1238129, -23.515028], [-45.1270873, -23.5151287], [-45.1297629, -23.5118677], [-45.1316888, -23.5111091], [-45.1324406, -23.5094193], [-45.1336144, -23.5090396], [-45.137816, -23.5118037], [-45.1387257, -23.5109315], [-45.1386871, -23.5090998], [-45.1349285, -23.5082381], [-45.1345621, -23.5066324], [-45.1353035, -23.5039768], [-45.1377984, -23.501516], [-45.1422055, -23.5002429], [-45.1432228, -23.5014076], [-45.1457427, -23.5019212], [-45.1458537, -23.5012763], [-45.1437499, -23.4999223], [-45.1448655, -23.4976234], [-45.1466214, -23.4965921], [-45.1534083, -23.4993934], [-45.1544157, -23.4993916], [-45.1547443, -23.4976114], [-45.157327, -23.4973753], [-45.1582125, -23.4991901], [-45.1602159, -23.5000272], [-45.1642471, -23.4974997], [-45.1650856, -23.4949066], [-45.1646098, -23.4939343], [-45.165503, -23.4928987], [-45.1690817, -23.4927892], [-45.1738852, -23.4963232], [-45.1748998, -23.5006593], [-45.1742343, -23.5017126], [-45.1726726, -23.5015133], [-45.1725057, -23.5023556], [-45.1711337, -23.5026361], [-45.1726347, -23.5029873], [-45.1733472, -23.5042784], [-45.1719316, -23.5057021], [-45.173359, -23.5086057], [-45.1726722, -23.5118616], [-45.1688232, -23.5129422], [-45.1661363, -23.5126623], [-45.1664419, -23.515801], [-45.1652585, -23.5167824], [-45.1633045, -23.516186], [-45.1626923, -23.5168689], [-45.163231, -23.5187467], [-45.1641099, -23.5194871], [-45.1658947, -23.5193899], [-45.1666633, -23.5212857], [-45.167095, -23.5259559], [-45.1660244, -23.5293309], [-45.1635308, -23.5316531], [-45.1620155, -23.5320466], [-45.1576559, -23.5294355], [-45.1594944, -23.5314274], [-45.1597566, -23.5331347], [-45.1595776, -23.5341322], [-45.1583265, -23.5339682], [-45.157881, -23.5352369], [-45.1591634, -23.5385232], [-45.1612317, -23.5392356], [-45.1620132, -23.5418945], [-45.1656191, -23.5417219], [-45.1660234, -23.5403778], [-45.1692114, -23.5392038], [-45.170925, -23.5398206], [-45.1744267, -23.5430185], [-45.17739, -23.5400237], [-45.1768657, -23.5385198], [-45.1783385, -23.5377921], [-45.1834641, -23.538907], [-45.1850222, -23.5397453], [-45.1853957, -23.5410252], [-45.1865226, -23.5405745], [-45.1859847, -23.536796], [-45.1880388, -23.5357091], [-45.1896047, -23.5332932], [-45.1866205, -23.5288728], [-45.1905618, -23.524238], [-45.1904133, -23.5216192], [-45.1948747, -23.5203112], [-45.2022254, -23.5208279], [-45.2096669, -23.5236327], [-45.2129742, -23.5255879], [-45.2155124, -23.5284094], [-45.2193521, -23.5289156], [-45.2219509, -23.5306241], [-45.2253985, -23.5338613], [-45.2274935, -23.5371263], [-45.2306148, -23.5475821], [-45.2298263, -23.550934], [-45.2279233, -23.551797], [-45.2262712, -23.5511253], [-45.222829, -23.5514705], [-45.2202226, -23.5545824], [-45.2206042, -23.5559849], [-45.2188863, -23.5576133], [-45.2143785, -23.5560521], [-45.2189909, -23.5593658], [-45.2180161, -23.5625903], [-45.2167474, -23.5644603], [-45.2148188, -23.5654963], [-45.210888, -23.5639603], [-45.2095718, -23.5647578], [-45.2115869, -23.5650119], [-45.2154068, -23.5686209], [-45.2126756, -23.5702417], [-45.2101542, -23.5706962], [-45.2113468, -23.5720948], [-45.2110072, -23.5737302], [-45.2098784, -23.5747258], [-45.2098098, -23.5776767], [-45.2076898, -23.5782984], [-45.209807, -23.5797988], [-45.2109628, -23.582735], [-45.2125884, -23.5825805], [-45.2159935, -23.5805484], [-45.2201717, -23.5826423], [-45.2213623, -23.5825027], [-45.2219583, -23.5811954], [-45.2242505, -23.5833094], [-45.2249761, -23.5828928], [-45.2286508, -23.5840834], [-45.2281462, -23.5818903], [-45.2305579, -23.5816892], [-45.234996, -23.5832458], [-45.241331, -23.5878676], [-45.244225, -23.5937286], [-45.2484257, -23.5924156], [-45.2530183, -23.5945362], [-45.2527777, -23.5914347], [-45.2554681, -23.5895249], [-45.2572602, -23.5895997], [-45.2595949, -23.592181], [-45.2597061, -23.5939238], [-45.2616295, -23.596401], [-45.2632638, -23.5966401], [-45.2610328, -23.5918762], [-45.2640153, -23.5888392], [-45.2689394, -23.5877985], [-45.2704396, -23.5891969], [-45.2714659, -23.5868118], [-45.2726537, -23.5864209], [-45.2761123, -23.5873211], [-45.2773618, -23.5886596], [-45.2784216, -23.5882544], [-45.2801305, -23.5844762], [-45.2793159, -23.5832882], [-45.2775914, -23.5830546], [-45.2774662, -23.5798474], [-45.2764905, -23.5775057], [-45.2787821, -23.5740659], [-45.2814436, -23.5727941], [-45.2850822, -23.5723269], [-45.2933087, -23.5749133], [-45.2932284, -23.5734861], [-45.294444, -23.5725007], [-45.297614, -23.5722414], [-45.3041928, -23.5744931], [-45.3065241, -23.5763958], [-45.3081257, -23.5760679], [-45.3085653, -23.5751826], [-45.3114123, -23.5756653], [-45.313825, -23.5776724], [-45.3202888, -23.579707], [-45.3280714, -23.5848181], [-45.3382457, -23.5943789], [-45.3434037, -23.600672], [-45.3515732, -23.6134126], [-45.3573437, -23.6243306], [-45.360499, -23.6259512], [-45.3624429, -23.6254932], [-45.3657359, -23.6266359], [-45.3669411, -23.6279597], [-45.3676481, -23.6277816], [-45.3690326, -23.6303586], [-45.3717446, -23.629397], [-45.3759451, -23.6263317], [-45.375563, -23.6251491], [-45.3777657, -23.6244983], [-45.3805328, -23.6261084], [-45.3882545, -23.6347035], [-45.3900832, -23.6338812], [-45.3899725, -23.6315278], [-45.395301, -23.6307971], [-45.3954181, -23.6299912], [-45.3975017, -23.629494], [-45.3972581, -23.6271357], [-45.4004085, -23.6232366], [-45.4036811, -23.6230536], [-45.4074729, -23.6243404], [-45.410817, -23.6268697], [-45.4173771, -23.6341697], [-45.4241915, -23.6461929], [-45.4283085, -23.6579064], [-45.4293473, -23.6634692], [-45.4304476, -23.6729502], [-45.4305175, -23.6826592], [-45.4294203, -23.6933894], [-45.4267124, -23.7068717], [-45.4271883, -23.7093312], [-45.4196571, -23.7258581], [-45.4151996, -23.7259588], [-45.4127892, -23.7234854], [-45.411699, -23.7249567], [-45.409139, -23.7241188], [-45.4082125, -23.7256832], [-45.4066132, -23.726367], [-45.4044633, -23.7248796], [-45.4017509, -23.7253568], [-45.3995639, -23.7247447], [-45.3979387, -23.7229984], [-45.3971344, -23.7236626], [-45.3970289, -23.7251691], [-45.3979601, -23.7263989], [-45.3970118, -23.7266818], [-45.3972132, -23.7276542], [-45.3994877, -23.7291189], [-45.3980264, -23.7326376], [-45.3989135, -23.733249], [-45.3993591, -23.7358437], [-45.398766, -23.7367442], [-45.4012092, -23.7379018], [-45.4021965, -23.7407843], [-45.4045446, -23.7415883], [-45.407255, -23.7444766], [-45.4089345, -23.7483666], [-45.4113294, -23.7494327], [-45.4114365, -23.7520471], [-45.4124827, -23.7536692], [-45.4065192, -23.7641957], [-45.4025613, -23.7681037], [-45.4030277, -23.770887], [-45.4002226, -23.77368], [-45.4007734, -23.7766172], [-45.396868, -23.7805715], [-45.3989221, -23.7842316], [-45.3972692, -23.7879122], [-45.3995387, -23.7960833], [-45.3987688, -23.7987762], [-45.3976624, -23.7992807], [-45.3984551, -23.80016], [-45.3963893, -23.8071916], [-45.3986873, -23.8078516], [-45.3962758, -23.8081263], [-45.3961345, -23.8091138], [-45.3989798, -23.8101504], [-45.3983357, -23.8108528], [-45.39658, -23.810712], [-45.3976871, -23.8116649], [-45.3988035, -23.8111661], [-45.4005544, -23.8140019], [-45.4065297, -23.8095921], [-45.4067702, -23.8107977], [-45.4083943, -23.8119692], [-45.4078771, -23.8129315], [-45.4087157, -23.8130887], [-45.4087772, -23.815476], [-45.4062715, -23.8174665], [-45.4049222, -23.8199816], [-45.4062464, -23.8210209], [-45.4108241, -23.8215991], [-45.4120825, -23.8248456], [-45.4136279, -23.8249681], [-45.4135999, -23.8237064], [-45.4160708, -23.8231852], [-45.4192787, -23.8240031], [-45.421901, -23.8256565], [-45.4219825, -23.8272693], [-45.4211514, -23.8282038], [-45.4231072, -23.8281267], [-45.4232966, -23.8296701], [-45.4238169, -23.8288578], [-45.4254049, -23.82891], [-45.4272032, -23.8307252], [-45.4322562, -23.8331346], [-45.4311493, -23.8305119], [-45.4319897, -23.8295354], [-45.4378377, -23.8270812], [-45.4407393, -23.8267029], [-45.4417024, -23.8299748], [-45.4432117, -23.8298979], [-45.4463627, -23.8330666], [-45.4477345, -23.8302037], [-45.4467309, -23.8281569], [-45.4473232, -23.827167], [-45.4607932, -23.8208141], [-45.4669769, -23.8190682], [-45.4688268, -23.8199773], [-45.4690191, -23.8227319], [-45.4716076, -23.8230784], [-45.4734933, -23.8256073], [-45.4737776, -23.8242415], [-45.4749183, -23.8240995], [-45.4783408, -23.8283756], [-45.4826205, -23.8297179], [-45.4846388, -23.8293842], [-45.4856666, -23.8302462], [-45.4900736, -23.8300656], [-45.4918555, -23.834811], [-45.4914416, -23.837546], [-45.4920524, -23.8371747], [-45.4932976, -23.8381542], [-45.4947162, -23.8374379], [-45.497782, -23.8390548], [-45.4992825, -23.8385833], [-45.5023852, -23.8411182], [-45.5026446, -23.8426375], [-45.5037723, -23.841543], [-45.5097762, -23.8402148], [-45.5143291, -23.8421594], [-45.5143268, -23.840129], [-45.5110999, -23.836535], [-45.5112827, -23.8336969], [-45.5125616, -23.8317234], [-45.5185761, -23.832748], [-45.5197233, -23.8312168], [-45.5205813, -23.8312957], [-45.5209748, -23.8326885], [-45.5228436, -23.8332028], [-45.5218486, -23.8310576], [-45.523339, -23.829131], [-45.5275132, -23.8291173], [-45.5283056, -23.8297506], [-45.5333596, -23.8288313], [-45.5371553, -23.830802], [-45.5384555, -23.8289087], [-45.5397046, -23.828832], [-45.5387717, -23.8277057], [-45.5369041, -23.8273151], [-45.5360168, -23.8250656], [-45.533392, -23.8233564], [-45.5346228, -23.8183072], [-45.538256, -23.8135477], [-45.5444862, -23.8090723], [-45.5479708, -23.8103212], [-45.5488755, -23.8104292], [-45.5491088, -23.8092762], [-45.5529129, -23.8107481], [-45.5547411, -23.8104052], [-45.5534519, -23.8084185], [-45.5534372, -23.8061277], [-45.552069, -23.8050294], [-45.5539556, -23.8009457], [-45.5553239, -23.801663], [-45.5566095, -23.8010978], [-45.5549048, -23.7995187], [-45.5540365, -23.7971275], [-45.5551638, -23.7960879], [-45.5551489, -23.7950143], [-45.5601955, -23.7925316], [-45.5654224, -23.7919926], [-45.5875578, -23.7926744], [-45.5902539, -23.7965644], [-45.5925273, -23.7951419], [-45.5967838, -23.7987046], [-45.5980475, -23.7971803], [-45.6007667, -23.7973463], [-45.6071903, -23.8003713], [-45.6094178, -23.7986954], [-45.6158193, -23.7992353], [-45.6170274, -23.8000808], [-45.6169004, -23.8025688], [-45.6178218, -23.8041223], [-45.6204302, -23.8033646], [-45.6231068, -23.8050813], [-45.6236216, -23.8029088], [-45.6266185, -23.7999921], [-45.6240498, -23.7958314], [-45.6245374, -23.7949409], [-45.6258056, -23.7947828], [-45.6245079, -23.7914886], [-45.6275285, -23.790738], [-45.6251373, -23.7899401], [-45.6255157, -23.7871012], [-45.6279656, -23.7851022], [-45.6330928, -23.7836395], [-45.6386617, -23.7832657], [-45.6421305, -23.7845787], [-45.6406023, -23.7820933], [-45.6415361, -23.7787714], [-45.6424597, -23.7788801], [-45.6421976, -23.7782133], [-45.6431185, -23.7777263], [-45.6464416, -23.7778485], [-45.646397, -23.7795156], [-45.6478926, -23.7801667], [-45.6479678, -23.7787215], [-45.6492324, -23.7779915], [-45.6582287, -23.778973], [-45.6600924, -23.7820463], [-45.6627099, -23.7823507], [-45.6629026, -23.7850788], [-45.6659314, -23.7859501], [-45.6665529, -23.7848044], [-45.6638096, -23.7797994], [-45.6662249, -23.7771324], [-45.6727562, -23.7748018], [-45.6820538, -23.774757], [-45.6848202, -23.7755628], [-45.6848767, -23.7784862], [-45.6888177, -23.7783726], [-45.6904604, -23.7804262], [-45.690692, -23.7820788], [-45.6942302, -23.7825564], [-45.6968606, -23.7801521], [-45.6945546, -23.7768125], [-45.6937657, -23.776735], [-45.6939235, -23.7759349], [-45.6996264, -23.7728139], [-45.7021956, -23.7728694], [-45.7027459, -23.7745089], [-45.7052678, -23.7732313], [-45.7058644, -23.7714017], [-45.7104738, -23.7707085], [-45.7164535, -23.7730866], [-45.7176808, -23.7746304], [-45.7217327, -23.7713671], [-45.7251707, -23.7703105], [-45.7430611, -23.7675468], [-45.7535767, -23.7679228], [-45.754789, -23.768394], [-45.7557046, -23.7703171], [-45.757041, -23.7706355], [-45.7566576, -23.770181], [-45.7583794, -23.7696301], [-45.758657, -23.768691], [-45.7603722, -23.7687394], [-45.7624323, -23.7675648], [-45.7608265, -23.7668401], [-45.7614796, -23.7640919], [-45.7659252, -23.7624939], [-45.7764009, -23.7630577], [-45.7773802, -23.763771], [-45.7773663, -23.7648639], [-45.7796515, -23.7661387], [-45.780495, -23.7658375], [-45.7802096, -23.7646361], [-45.7814014, -23.7642274], [-45.7837538, -23.764761], [-45.7836536, -23.765659], [-45.7850002, -23.7666833], [-45.7863273, -23.7652822], [-45.7906738, -23.7660501], [-45.7925174, -23.7692608], [-45.7963981, -23.769837], [-45.7966688, -23.768426], [-45.7980386, -23.7679185], [-45.800668, -23.7696852], [-45.8041089, -23.7698726], [-45.8044632, -23.7677608], [-45.8037928, -23.7660198], [-45.8018903, -23.7645232], [-45.8017337, -23.7629406], [-45.8035972, -23.7607432], [-45.8077114, -23.7591072], [-45.8241645, -23.7573482], [-45.8411563, -23.7580842], [-45.8710333, -23.7609428], [-45.8793507, -23.7632093], [-45.8814362, -23.7624533], [-45.8969038, -23.7656963], [-45.8983204, -23.7653529], [-45.9269498, -23.7719087], [-45.972647, -23.7853503], [-45.9881203, -23.7917549], [-45.9919926, -23.7941389], [-45.9927787, -23.7956906], [-45.9919026, -23.7960822], [-45.991619, -23.7974197], [-45.993098, -23.8006012], [-45.998019, -23.8033135], [-46.0002298, -23.8035608], [-46.0010593, -23.802417], [-46.0003322, -23.8015165], [-46.0021108, -23.7998989], [-46.008131, -23.8002687], [-46.0234586, -23.805145], [-46.0317496, -23.809201], [-46.0366614, -23.8124636], [-46.0391084, -23.8163593], [-46.0392461, -23.8186982], [-46.0385117, -23.8201187], [-46.0351777, -23.8205142], [-46.0349849, -23.8213965], [-46.0385314, -23.8220212], [-46.0397886, -23.8237845], [-46.03898, -23.8259194], [-46.0431853, -23.828915], [-46.0437793, -23.8302878], [-46.0470781, -23.8320343], [-46.0515922, -23.8293085], [-46.0503871, -23.8281437], [-46.0473985, -23.8283524], [-46.0464851, -23.8263337], [-46.0449883, -23.8253827], [-46.0455481, -23.822374], [-46.048271, -23.8188906], [-46.0521709, -23.8162776], [-46.0574811, -23.8143373], [-46.0662216, -23.8145953], [-46.0886796, -23.8221206], [-46.118214, -23.836615], [-46.1266023, -23.8427003], [-46.1300574, -23.8458681], [-46.1329342, -23.8514023], [-46.1331326, -23.8580087], [-46.1301882, -23.8568633], [-46.1257431, -23.8570232], [-46.1238255, -23.8607711], [-46.1275176, -23.8630601], [-46.1312855, -23.8630681], [-46.1363269, -23.8681126], [-46.1364603, -23.8710514], [-46.1382878, -23.8727245], [-46.1393867, -23.8753248], [-46.1391217, -23.8764519], [-46.1375473, -23.8772004], [-46.1403473, -23.8793475], [-46.1408725, -23.8808439], [-46.1405916, -23.882428], [-46.1390316, -23.8832032], [-46.1391187, -23.8845014], [-46.1374469, -23.885539], [-46.13816, -23.8901131], [-46.1408407, -23.8921059], [-46.1481776, -23.8937757], [-46.1508842, -23.8975309], [-46.1520958, -23.9011256], [-46.1521171, -23.903526], [-46.1505823, -23.9058546], [-46.1471366, -23.9048194], [-46.1460496, -23.9051125], [-46.1461764, -23.9057761], [-46.1488452, -23.9065589], [-46.1508932, -23.908167], [-46.1524711, -23.9078485], [-46.1557287, -23.9092562], [-46.1565926, -23.909131], [-46.1559776, -23.9078393], [-46.1565138, -23.9070242], [-46.1582504, -23.9073484], [-46.160651, -23.9065103], [-46.1671342, -23.9110452], [-46.1682608, -23.9125595], [-46.1685905, -23.9150898], [-46.1697525, -23.9154495], [-46.1705504, -23.9168241], [-46.1721556, -23.9170679], [-46.1719686, -23.9181858], [-46.1742258, -23.921368], [-46.1788713, -23.9241838], [-46.1802147, -23.928265], [-46.1805433, -23.9330936], [-46.180115, -23.9359214], [-46.1783541, -23.9390277], [-46.1738656, -23.9415598], [-46.1732672, -23.9399734], [-46.1702226, -23.9378641], [-46.1683385, -23.9377364], [-46.167251, -23.9383352], [-46.1655934, -23.9441573], [-46.1604111, -23.9455243], [-46.1613986, -23.9461736], [-46.1649973, -23.9460246], [-46.1670105, -23.9470072], [-46.1703284, -23.9519923], [-46.1725675, -23.9578727], [-46.1777128, -23.9605347], [-46.1819031, -23.9611759], [-46.1847043, -23.9653793], [-46.1852582, -23.9684167], [-46.1845917, -23.971256], [-46.1870217, -23.9727925], [-46.1857668, -23.9749641], [-46.1872474, -23.9774306], [-46.1848108, -23.978808], [-46.1866195, -23.9826321], [-46.1842051, -23.9829558], [-46.1860472, -23.9845188], [-46.1862742, -23.9870901], [-46.1843604, -23.9874703], [-46.183827, -23.988771], [-46.1817147, -23.989139], [-46.1822429, -23.9910863], [-46.1852891, -23.9921373], [-46.1878941, -23.9899418], [-46.1912849, -23.9899399], [-46.1957087, -23.9939873], [-46.200363, -23.9951111], [-46.2008564, -23.9965934], [-46.1996891, -23.997667], [-46.2010607, -23.9999245], [-46.2024904, -24.0006075], [-46.2066845, -24.0002471], [-46.2077746, -23.998976], [-46.2051765, -23.9955347], [-46.2027099, -23.9941285], [-46.2036661, -23.9913103], [-46.2092077, -23.9871694], [-46.2119003, -23.9864078], [-46.2143862, -23.9861242], [-46.2279191, -23.9881726], [-46.2396519, -23.9907848], [-46.2473976, -23.9938581], [-46.2480552, -23.9958441], [-46.250061, -23.9967161], [-46.2523774, -23.9966125], [-46.2556548, -23.9996094], [-46.2592696, -24.0001357], [-46.265198, -24.0040519], [-46.267403, -24.0073907], [-46.267444, -24.0090725], [-46.2652771, -24.0100617], [-46.264445, -24.0119991], [-46.2632201, -24.012587], [-46.2629812, -24.014077], [-46.265905, -24.0143819], [-46.2681141, -24.0129414], [-46.270411, -24.0137254], [-46.2749074, -24.0162842], [-46.276395, -24.0190295], [-46.2792133, -24.0213093], [-46.2802521, -24.0268528], [-46.2777389, -24.0302657], [-46.2779449, -24.0358024], [-46.2819578, -24.0383807], [-46.2814979, -24.0403556], [-46.2830612, -24.0432694], [-46.2874883, -24.0450631], [-46.2892989, -24.0448359], [-46.2875797, -24.0424512], [-46.2898211, -24.0398109], [-46.289085, -24.0387672], [-46.2868421, -24.0382563], [-46.2889186, -24.037514], [-46.2891507, -24.0366905], [-46.287581, -24.0360485], [-46.2880205, -24.0344242], [-46.2847189, -24.0323852], [-46.284514, -24.0293255], [-46.2858068, -24.0285486], [-46.2840787, -24.0264748], [-46.2861367, -24.0241961], [-46.2893117, -24.0256624], [-46.2899441, -24.02425], [-46.292123, -24.0231459], [-46.2925385, -24.0220296], [-46.2908237, -24.0197051], [-46.2949655, -24.0159868], [-46.2994977, -24.0161004], [-46.3021874, -24.0185407], [-46.304562, -24.0194846], [-46.3111804, -24.0286648], [-46.3126609, -24.0270431], [-46.3119963, -24.0225697], [-46.3133749, -24.0206185], [-46.315267, -24.02026], [-46.3167103, -24.0214421], [-46.3177176, -24.0239999], [-46.3192572, -24.0245976], [-46.3214241, -24.022678], [-46.3235204, -24.0229486], [-46.3243627, -24.0222526], [-46.3247396, -24.021262], [-46.3228682, -24.016333], [-46.3235943, -24.0120316], [-46.3223324, -24.0097213], [-46.323475, -24.0090997], [-46.3201451, -24.0030013], [-46.3206741, -24.00077], [-46.3220279, -24.0007402], [-46.3219479, -24.0000372], [-46.3193634, -23.9972659], [-46.3174837, -23.997837], [-46.3160402, -23.9969875], [-46.3155627, -23.9982053], [-46.3144296, -23.9985483], [-46.3109587, -23.9960846], [-46.3083411, -23.9957358], [-46.306708, -23.9941842], [-46.305666, -23.9911797], [-46.3072318, -23.9903998], [-46.3084935, -23.9878723], [-46.3174591, -23.9790532], [-46.3255315, -23.9746589], [-46.3323278, -23.9727232], [-46.3473285, -23.9705525], [-46.3496982, -23.9708409], [-46.3502686, -23.9725109], [-46.3509612, -23.971541], [-46.3527317, -23.9723643], [-46.3547196, -23.9711324], [-46.3577438, -23.9709544], [-46.3659599, -23.9728631], [-46.3686878, -23.9748571], [-46.3698327, -23.9776026], [-46.3678503, -23.9784855], [-46.3672633, -23.9811328], [-46.3688866, -23.9818823], [-46.3724888, -23.9801829], [-46.3727467, -23.9787109], [-46.3716764, -23.9765199], [-46.3726862, -23.9760503], [-46.3717254, -23.9749121], [-46.3739084, -23.971282], [-46.3756827, -23.9695843], [-46.377887, -23.9695182], [-46.3837968, -23.9718414], [-46.3858217, -23.9743664], [-46.3886359, -23.9747757], [-46.388745, -23.9762894], [-46.3840177, -23.9783782], [-46.3809778, -23.9772579], [-46.3804323, -23.9792033], [-46.3785016, -23.9798683], [-46.3793566, -23.982139], [-46.3788045, -23.9841744], [-46.3745755, -23.9854018], [-46.3752179, -23.9888663], [-46.3782711, -23.9923495], [-46.377996, -23.9937819], [-46.3813239, -23.9942214], [-46.3841631, -23.9955738], [-46.386915, -23.9951535], [-46.3918773, -23.9986085], [-46.391535, -24.0017898], [-46.3887455, -24.0052262], [-46.3922537, -24.0079496], [-46.3911558, -24.0129819], [-46.3887836, -24.0131076], [-46.3864956, -24.0145886], [-46.3843367, -24.0164488], [-46.3836651, -24.0184344], [-46.3848963, -24.0188974], [-46.3867759, -24.0173794], [-46.3901253, -24.0170088], [-46.3915205, -24.0194831], [-46.3915697, -24.0215292], [-46.3905296, -24.0220925], [-46.3902681, -24.0238268], [-46.3961114, -24.0296154], [-46.3962112, -24.0306997], [-46.3978707, -24.0314242], [-46.3989054, -24.0335191], [-46.40004, -24.0335679], [-46.4017174, -24.0321703], [-46.3994022, -24.0283634], [-46.3994114, -24.019178], [-46.4081497, -24.0158424], [-46.415595, -24.0156591], [-46.4248092, -24.0166916], [-46.4454726, -24.0211132], [-46.4650745, -24.0274363], [-46.484256, -24.0348757], [-46.5494449, -24.0636006], [-46.6350914, -24.1044789], [-46.7033781, -24.1406447], [-46.748971, -24.1664343], [-46.7888464, -24.1872458], [-46.7891097, -24.1890171], [-46.7926157, -24.1911812], [-46.7938932, -24.1938765], [-46.7955617, -24.1948761], [-46.7951762, -24.1937602], [-46.7964794, -24.1936959], [-46.8002671, -24.1951175], [-46.8016125, -24.1975507], [-46.8045178, -24.1983603], [-46.8048125, -24.2003588], [-46.808455, -24.201378], [-46.8106902, -24.2006494], [-46.8111594, -24.2012509], [-46.8104398, -24.2019754], [-46.811975, -24.2025739], [-46.8119529, -24.2013325], [-46.8146204, -24.2012516], [-46.8202926, -24.2042434], [-46.8533148, -24.2238753], [-46.9315631, -24.2747135], [-46.9718344, -24.3050536], [-46.9957386, -24.3274133], [-47.0007032, -24.3338151], [-47.002473, -24.3373097], [-47.0009286, -24.3404844], [-46.9995339, -24.3405131], [-46.9994756, -24.34148], [-47.0005133, -24.3417973], [-47.0005855, -24.3435316], [-47.0017149, -24.3445191], [-47.0010515, -24.3464162], [-47.000075, -24.3465476], [-46.9999947, -24.3496267], [-46.9988714, -24.3508224], [-46.9966025, -24.3500706], [-46.996, -24.3505244], [-46.996385, -24.3512271], [-46.9986706, -24.3516308], [-46.9983209, -24.3520669], [-46.9996906, -24.3536789], [-46.9992339, -24.3549444], [-47.001309, -24.3569364], [-47.0011471, -24.359143], [-47.0024817, -24.3620659], [-47.0069366, -24.3669077], [-47.0093426, -24.3672134], [-47.0165962, -24.3777696], [-47.0182394, -24.3788361], [-47.0163207, -24.3873831], [-47.0137532, -24.3875412], [-47.0134098, -24.3886703], [-47.0119368, -24.388027], [-47.0084794, -24.3886584], [-47.0108162, -24.3903724], [-47.0093668, -24.3966336], [-47.0065823, -24.396694], [-47.0050111, -24.3976566], [-47.0019411, -24.3974749], [-47.0012903, -24.398262], [-47.0017422, -24.4004713], [-47.0050135, -24.401638], [-47.0037122, -24.4094793], [-47.0049531, -24.4101444], [-47.0087728, -24.409515], [-47.0093206, -24.4101723], [-47.0090058, -24.4124645], [-47.0073091, -24.4130406], [-47.0083732, -24.4145193], [-47.0117194, -24.4143439], [-47.0147497, -24.4121963], [-47.0192208, -24.4147663], [-47.021475, -24.4170075], [-47.0217407, -24.4182496], [-47.0201594, -24.4193323], [-47.0214962, -24.422591], [-47.0246522, -24.4236221], [-47.0250375, -24.4249613], [-47.0288307, -24.4270972], [-47.0373128, -24.4269106], [-47.0440114, -24.4292709], [-47.0453563, -24.430462], [-47.0469364, -24.429932], [-47.0489858, -24.4314738], [-47.0483792, -24.4326515], [-47.0532789, -24.4331004], [-47.1095371, -24.4680031], [-47.1408434, -24.4895432], [-47.1732948, -24.5142475], [-47.1852021, -24.5244773], [-47.1882392, -24.5284192], [-47.1883909, -24.5301018], [-47.1865268, -24.5310744], [-47.1861655, -24.5326024], [-47.1890166, -24.5360659], [-47.1901898, -24.5366004], [-47.193723, -24.5357242], [-47.1969018, -24.5384249], [-47.1976934, -24.5381006], [-47.200555, -24.5395954], [-47.2245171, -24.5569956], [-47.2279034, -24.5606233], [-47.2254332, -24.5631816], [-47.2242437, -24.5668936], [-47.2270261, -24.571252], [-47.229659, -24.5722302], [-47.2332077, -24.5717324], [-47.2344304, -24.572344], [-47.2362944, -24.5713437], [-47.2406019, -24.5747536], [-47.241992, -24.5749799], [-47.243894, -24.5736728], [-47.2450094, -24.5739702], [-47.2809077, -24.5937817], [-47.3752748, -24.650078], [-47.389948, -24.6600807], [-47.4052232, -24.6728709], [-47.4132933, -24.6744995], [-47.4203007, -24.6782659], [-47.4209823, -24.682281], [-47.4248093, -24.6851413], [-47.5103698, -24.7289578], [-47.5610293, -24.7579095], [-47.591915, -24.777862], [-47.6230426, -24.7991402], [-47.7158621, -24.8683726], [-47.800267, -24.9367522], [-47.8218748, -24.9559175], [-47.8429223, -24.976605], [-47.8544121, -24.9895211], [-47.8717418, -25.0115718], [-47.8804208, -25.0251521], [-47.8830422, -25.0310358], [-47.8851226, -25.0384953], [-47.8869055, -25.0512669], [-47.8908702, -25.0521688], [-47.8976242, -25.0518951], [-47.9095216, -25.0529461], [-47.9087187, -25.063435], [-47.9059292, -25.0633175], [-47.9023781, -25.0656706], [-47.9028361, -25.0852125], [-47.9047344, -25.0954246], [-47.904076, -25.0999878], [-47.9015824, -25.1035901], [-47.8960917, -25.1040151], [-47.8946544, -25.1054851], [-47.8953085, -25.1081921], [-47.8981644, -25.1086107], [-47.9020916, -25.1119539], [-47.904229, -25.1160151], [-47.9083367, -25.1185339], [-47.9091157, -25.1223251], [-47.912665, -25.128745], [-47.913816, -25.1346821], [-47.9160035, -25.138396], [-47.9149663, -25.1406373], [-47.9162571, -25.1436934], [-47.9187975, -25.144728], [-47.9195924, -25.1491382], [-47.9193192, -25.1529894], [-47.9169988, -25.1565026], [-47.915204, -25.1556548], [-47.9124698, -25.1557979], [-47.9138725, -25.1591541], [-47.9178337, -25.1593572], [-47.9200795, -25.1602971], [-47.9207968, -25.1598488], [-47.922322, -25.16109], [-47.9231792, -25.1603535], [-47.9264866, -25.16169], [-47.9308563, -25.1642674], [-47.9317802, -25.1661999], [-47.933627, -25.1663547], [-47.9340194, -25.1674767], [-47.9343345, -25.1665679], [-47.9363456, -25.1673622], [-47.945992, -25.1743206], [-47.9715725, -25.196459], [-47.9727182, -25.198242], [-47.9721889, -25.199718], [-47.9768708, -25.2022418], [-47.9788851, -25.2025458], [-47.9836755, -25.2062576], [-48.0468761, -25.2585301], [-48.0703953, -25.2811944], [-48.0911577, -25.3043111], [-48.09574544496355, -25.308515580761842]], [[-46.3678988, -23.9825271], [-46.3681955, -23.9820431], [-46.3678988, -23.9825271]], [[-46.3513581, -23.9732058], [-46.3527526, -23.9750978], [-46.3536479, -23.974593], [-46.3526077, -23.9732069], [-46.3513581, -23.9732058]], [[-46.1633006, -24.3304711], [-46.1607126, -24.32767], [-46.1624107, -24.3311343], [-46.1634218, -24.3310976], [-46.1633006, -24.3304711]], [[-46.1814814, -24.3190729], [-46.1798233, -24.3182622], [-46.1803491, -24.3197731], [-46.1833823, -24.3213209], [-46.1814814, -24.3190729]], [[-45.6881949, -24.0959934], [-45.688641, -24.0980503], [-45.6879263, -24.0984776], [-45.6843664, -24.0963743], [-45.682683, -24.0975178], [-45.6810236, -24.0965523], [-45.6796541, -24.0970556], [-45.6839097, -24.1016625], [-45.6910891, -24.1055474], [-45.6964108, -24.1069065], [-45.6986621, -24.106366], [-45.7004813, -24.1078243], [-45.7002726, -24.109539], [-45.7014666, -24.109758], [-45.7019964, -24.1109741], [-45.7034895, -24.1110925], [-45.7052652, -24.1131452], [-45.706277, -24.1131721], [-45.7071383, -24.1110379], [-45.7065899, -24.1104593], [-45.7062266, -24.1111636], [-45.705058, -24.1104229], [-45.7031956, -24.1107898], [-45.7019754, -24.1096785], [-45.7023708, -24.1076875], [-45.7039837, -24.1059071], [-45.7030979, -24.1065562], [-45.7009789, -24.106232], [-45.7006371, -24.1042876], [-45.6977703, -24.1009585], [-45.6948729, -24.0996991], [-45.6919395, -24.096714], [-45.6913113, -24.0909018], [-45.6900812, -24.0907029], [-45.6897691, -24.0918339], [-45.6886177, -24.0916906], [-45.6891305, -24.0941808], [-45.6881912, -24.0947064], [-45.6881949, -24.0959934]], [[-45.70161, -24.0958596], [-45.7024988, -24.0965855], [-45.7021877, -24.0954744], [-45.70161, -24.0958596]], [[-45.7047758, -24.0940075], [-45.7053072, -24.0936288], [-45.704236, -24.0935364], [-45.7047758, -24.0940075]], [[-45.6586348, -24.0890847], [-45.6591384, -24.0891192], [-45.6583138, -24.0886896], [-45.6586348, -24.0890847]], [[-45.66343, -24.0834274], [-45.6631847, -24.0825395], [-45.6629769, -24.0836529], [-45.66343, -24.0834274]], [[-45.7161054, -24.0795346], [-45.7171819, -24.0801963], [-45.7161054, -24.0795346]], [[-45.7166091, -24.0764583], [-45.7182979, -24.0773372], [-45.7172362, -24.0761027], [-45.7166091, -24.0764583]], [[-45.6560049, -24.0753123], [-45.6541273, -24.0751072], [-45.6560518, -24.0769204], [-45.6560049, -24.0753123]], [[-46.2706459, -24.0498525], [-46.2706459, -24.0498525]], [[-46.2615866, -24.0471132], [-46.2626317, -24.0483906], [-46.2616253, -24.0507464], [-46.2603894, -24.0514122], [-46.2612123, -24.0527312], [-46.2646927, -24.0517667], [-46.2657534, -24.0500709], [-46.2673653, -24.0501582], [-46.2644961, -24.0483449], [-46.2628091, -24.0452908], [-46.260819, -24.0448184], [-46.2615866, -24.0471132]], [[-46.2940697, -24.0277421], [-46.295001, -24.02848], [-46.2940697, -24.0277421]], [[-46.2936898, -24.0256235], [-46.2921024, -24.0246605], [-46.2928883, -24.026054], [-46.2936898, -24.0256235]], [[-46.218394, -24.0103876], [-46.2195524, -24.01045], [-46.2165306, -24.0075869], [-46.2174947, -24.0101034], [-46.218394, -24.0103876]], [[-46.3237294, -24.008827], [-46.3254115, -24.0093892], [-46.3249251, -24.0080305], [-46.3237294, -24.008827]], [[-46.253852, -24.0025767], [-46.2557446, -24.0008795], [-46.2534825, -24.002073], [-46.253852, -24.0025767]], [[-46.1812765, -23.9734035], [-46.1814787, -23.975443], [-46.1842285, -23.975038], [-46.1836588, -23.9722262], [-46.1812108, -23.9705247], [-46.1800905, -23.9709161], [-46.1812765, -23.9734035]], [[-46.1758629, -23.9698419], [-46.1771545, -23.9705528], [-46.1758629, -23.9698419]], [[-46.1658342, -23.9674094], [-46.1679698, -23.9678058], [-46.1680903, -23.9669031], [-46.1669828, -23.9663452], [-46.1658342, -23.9674094]], [[-46.1696083, -23.9273192], [-46.1704849, -23.9278736], [-46.1696083, -23.9273192]], [[-46.168253, -23.9154003], [-46.1682921, -23.9147218], [-46.1673717, -23.9147882], [-46.1665453, -23.9156723], [-46.1676406, -23.9160216], [-46.168253, -23.9154003]], [[-46.1371671, -23.8929064], [-46.1374609, -23.8922039], [-46.135872, -23.8918961], [-46.1364239, -23.8931095], [-46.1371671, -23.8929064]], [[-46.1303574, -23.884793], [-46.1292024, -23.8838367], [-46.12833, -23.8852399], [-46.1303574, -23.884793]], [[-46.1356466, -23.871585], [-46.1337586, -23.8714354], [-46.1358272, -23.8727248], [-46.1356466, -23.871585]], [[-45.7744046, -23.8622949], [-45.7763902, -23.8680872], [-45.7811909, -23.8709187], [-45.7869762, -23.8684672], [-45.7866368, -23.8624774], [-45.7842343, -23.859457], [-45.7800368, -23.8589426], [-45.7781045, -23.8577688], [-45.7743831, -23.85918], [-45.7735628, -23.8603384], [-45.7744046, -23.8622949]], [[-46.026376, -23.8259318], [-46.024929, -23.8257066], [-46.0258932, -23.8269616], [-46.0267629, -23.8267032], [-46.026376, -23.8259318]], [[-45.669074, -23.8060933], [-45.6714801, -23.8072787], [-45.6714101, -23.8055581], [-45.6675959, -23.8033802], [-45.6672855, -23.804519], [-45.669074, -23.8060933]], [[-45.7164625, -23.8013891], [-45.7163073, -23.8025642], [-45.714807, -23.8036649], [-45.716469, -23.8062974], [-45.7168645, -23.8041396], [-45.7201564, -23.8036773], [-45.7214476, -23.8044151], [-45.7246568, -23.8035611], [-45.7261853, -23.8022957], [-45.7254049, -23.8009974], [-45.7203002, -23.7986985], [-45.7177502, -23.7989663], [-45.7164625, -23.8013891]], [[-45.7079142, -23.7898421], [-45.7109197, -23.7899029], [-45.7142997, -23.7933586], [-45.7176626, -23.7935449], [-45.7168705, -23.7912094], [-45.714481, -23.790677], [-45.711093, -23.7871598], [-45.7074044, -23.7883591], [-45.7046699, -23.7868964], [-45.7044442, -23.7888191], [-45.7079142, -23.7898421]], [[-45.799503, -23.77345], [-45.8004028, -23.7737591], [-45.8007323, -23.7730715], [-45.7989338, -23.7728046], [-45.799503, -23.77345]], [[-45.746778, -23.771935], [-45.746636, -23.771326], [-45.746778, -23.771935]], [[-45.7534191, -23.7696734], [-45.7534191, -23.7696734]], [[-45.3002338, -23.9225019], [-45.3009201, -23.9226452], [-45.3002338, -23.9225019]], [[-45.2968364, -23.9197762], [-45.2982498, -23.9206338], [-45.2968364, -23.9197762]], [[-45.297108, -23.9188676], [-45.2960365, -23.9182405], [-45.2964957, -23.9193515], [-45.297108, -23.9188676]], [[-45.3228892, -23.9151246], [-45.325457, -23.9194898], [-45.3253483, -23.917643], [-45.3225633, -23.9144827], [-45.3228892, -23.9151246]], [[-45.2632301, -23.8897909], [-45.2644678, -23.8899057], [-45.2650249, -23.8885818], [-45.262812, -23.8878423], [-45.2621137, -23.8891192], [-45.2632301, -23.8897909]], [[-45.2592232, -23.8883912], [-45.2585457, -23.888266], [-45.2589459, -23.8891483], [-45.2600067, -23.8891077], [-45.2592232, -23.8883912]], [[-45.2869605, -23.8607624], [-45.2855383, -23.8597402], [-45.2869605, -23.8607624]], [[-45.4171176, -23.8531167], [-45.4179159, -23.8531943], [-45.4171176, -23.8531167]], [[-45.5203465, -23.8478438], [-45.5222225, -23.853782], [-45.5253933, -23.856279], [-45.5262229, -23.8545684], [-45.5255063, -23.8528895], [-45.5264691, -23.8499334], [-45.5233834, -23.8459329], [-45.5211216, -23.8467606], [-45.5203465, -23.8478438]], [[-45.2770858, -23.8513145], [-45.2789849, -23.8509557], [-45.2780487, -23.8500849], [-45.2770858, -23.8513145]], [[-45.3364803, -23.9191165], [-45.339323, -23.9208193], [-45.3390583, -23.9241471], [-45.3404085, -23.9254029], [-45.3400758, -23.9245325], [-45.341226, -23.9250325], [-45.3418329, -23.9238512], [-45.3451166, -23.923507], [-45.3429733, -23.9199485], [-45.3475029, -23.9160817], [-45.3495272, -23.9185402], [-45.3513831, -23.9193438], [-45.3519454, -23.9225184], [-45.3572937, -23.9278012], [-45.3611161, -23.9283025], [-45.3642858, -23.9304503], [-45.3658336, -23.9298573], [-45.3700194, -23.9314063], [-45.374076, -23.9312924], [-45.3810237, -23.9299491], [-45.3885074, -23.9322963], [-45.3906757, -23.9318263], [-45.3939819, -23.9330458], [-45.3981482, -23.932605], [-45.4045733, -23.9347273], [-45.4078725, -23.9385004], [-45.4124536, -23.939027], [-45.4138361, -23.9379975], [-45.41585, -23.9389179], [-45.422023, -23.9391042], [-45.4227026, -23.9384316], [-45.4267443, -23.9394145], [-45.4280613, -23.9411808], [-45.428042, -23.9393084], [-45.4322029, -23.939101], [-45.4347647, -23.9364515], [-45.4385803, -23.9367908], [-45.4409872, -23.9349546], [-45.4427756, -23.9350587], [-45.4443223, -23.9341456], [-45.4451347, -23.9317235], [-45.4465124, -23.9309761], [-45.447535, -23.9277645], [-45.4505521, -23.9267474], [-45.4514091, -23.9224489], [-45.4562816, -23.9195344], [-45.4561984, -23.9173287], [-45.4596366, -23.9158025], [-45.4603533, -23.9121737], [-45.4593753, -23.9104674], [-45.4607024, -23.9090467], [-45.4588705, -23.9066185], [-45.4591053, -23.9032899], [-45.4600325, -23.9030352], [-45.4592076, -23.9019951], [-45.4598567, -23.9011162], [-45.4594811, -23.8985887], [-45.4609952, -23.8964695], [-45.4605968, -23.892741], [-45.4614981, -23.8912769], [-45.4603921, -23.8902381], [-45.4621339, -23.88853], [-45.4589438, -23.8871523], [-45.4576619, -23.884659], [-45.4516883, -23.8849005], [-45.4483257, -23.8818913], [-45.4477537, -23.8794477], [-45.4441967, -23.8777899], [-45.4446071, -23.8757975], [-45.4431487, -23.8752694], [-45.4410422, -23.8715297], [-45.4392284, -23.8717093], [-45.4369587, -23.8700475], [-45.4348726, -23.870203], [-45.4324196, -23.867318], [-45.431338, -23.8646301], [-45.4318881, -23.8621125], [-45.4300722, -23.8601756], [-45.4265967, -23.8589127], [-45.4233378, -23.8600793], [-45.4220191, -23.8591252], [-45.419533, -23.8597611], [-45.4176217, -23.8593568], [-45.4142886, -23.854322], [-45.4144243, -23.8513411], [-45.4127898, -23.8487449], [-45.4137543, -23.847835], [-45.4125106, -23.8477641], [-45.4111333, -23.8461803], [-45.4094735, -23.8461126], [-45.4075462, -23.8433799], [-45.4063389, -23.8443668], [-45.4024312, -23.8423401], [-45.3997692, -23.8389712], [-45.3981587, -23.8384417], [-45.3925958, -23.831576], [-45.3869953, -23.8287795], [-45.3763443, -23.8183597], [-45.3758853, -23.819857], [-45.3726816, -23.8194333], [-45.3702733, -23.8145838], [-45.3667121, -23.8113249], [-45.36569, -23.8088909], [-45.3649204, -23.80069], [-45.3657542, -23.7961908], [-45.3638733, -23.7913134], [-45.3634668, -23.7872847], [-45.3583655, -23.7850311], [-45.3589776, -23.7771777], [-45.358045, -23.7757125], [-45.3538756, -23.7741994], [-45.3524015, -23.7729057], [-45.351724, -23.7697208], [-45.352249, -23.7681566], [-45.3488717, -23.7653508], [-45.3495227, -23.7620779], [-45.351377, -23.759311], [-45.3493475, -23.7536706], [-45.3502711, -23.7521524], [-45.3478043, -23.7480404], [-45.3490313, -23.7458596], [-45.3482404, -23.7441386], [-45.3493898, -23.7425399], [-45.347786, -23.7401047], [-45.343366, -23.7366347], [-45.341601, -23.7310412], [-45.3414736, -23.7277895], [-45.3389952, -23.7269958], [-45.3335719, -23.7225775], [-45.3292482, -23.7223197], [-45.3226633, -23.7238536], [-45.3185977, -23.7234825], [-45.318195, -23.7245765], [-45.3172308, -23.7245139], [-45.3171268, -23.7265464], [-45.3155945, -23.7268864], [-45.3146395, -23.7260614], [-45.3139482, -23.7281816], [-45.3127982, -23.7289509], [-45.3130477, -23.729623], [-45.3098622, -23.7303494], [-45.3086282, -23.7316879], [-45.300552, -23.7315981], [-45.2984405, -23.7344164], [-45.2932283, -23.7331658], [-45.2934359, -23.7354961], [-45.2910679, -23.7373426], [-45.2897403, -23.736418], [-45.2862468, -23.7364902], [-45.285441, -23.7349696], [-45.2830398, -23.7343185], [-45.2815279, -23.7352228], [-45.27695, -23.7348806], [-45.275828, -23.7353435], [-45.274269, -23.738638], [-45.2716876, -23.7388379], [-45.2705362, -23.7404953], [-45.2676531, -23.7397037], [-45.2672556, -23.743328], [-45.2659551, -23.7434413], [-45.264927, -23.7419974], [-45.2630831, -23.7415605], [-45.2619054, -23.7450109], [-45.260685, -23.745435], [-45.2582581, -23.7487635], [-45.2567253, -23.7486575], [-45.2558742, -23.7498879], [-45.2564334, -23.7521413], [-45.2581731, -23.7526536], [-45.258028, -23.7544477], [-45.2594413, -23.7556369], [-45.2600534, -23.7578368], [-45.2594403, -23.7596969], [-45.2573613, -23.7609504], [-45.2575986, -23.7621846], [-45.2546378, -23.7621382], [-45.2486376, -23.7636381], [-45.2477296, -23.7632575], [-45.24722, -23.7613554], [-45.2458367, -23.7614913], [-45.2435399, -23.7627794], [-45.2401789, -23.7670736], [-45.2385072, -23.7674986], [-45.2379248, -23.770145], [-45.236064, -23.7709823], [-45.2354391, -23.7727834], [-45.2339829, -23.7734582], [-45.2343335, -23.7765102], [-45.2298332, -23.7763327], [-45.2305911, -23.778287], [-45.2337054, -23.7801857], [-45.2351596, -23.7821082], [-45.2343874, -23.7839493], [-45.232532, -23.7850682], [-45.2375128, -23.7955889], [-45.2367729, -23.7953808], [-45.2354007, -23.796632], [-45.2360672, -23.7996703], [-45.2373572, -23.8012204], [-45.2367333, -23.8018367], [-45.2383362, -23.8022201], [-45.2409187, -23.8049928], [-45.2422038, -23.8077491], [-45.2423244, -23.8107622], [-45.2410763, -23.8121617], [-45.2368553, -23.8104976], [-45.2385805, -23.8123951], [-45.2368515, -23.8137738], [-45.2384629, -23.8162295], [-45.2388172, -23.8191652], [-45.2412469, -23.8214647], [-45.2458797, -23.8219759], [-45.2483861, -23.8248302], [-45.2479072, -23.8259378], [-45.2456046, -23.8260213], [-45.2434504, -23.8278878], [-45.2446544, -23.8317241], [-45.2404994, -23.8300208], [-45.2382804, -23.8303905], [-45.2378415, -23.8324403], [-45.2393566, -23.8342983], [-45.2441682, -23.8361668], [-45.2439236, -23.8370459], [-45.2415831, -23.8371551], [-45.2412902, -23.8387141], [-45.2380074, -23.8384682], [-45.232639, -23.835618], [-45.2313288, -23.8365565], [-45.2275454, -23.8363548], [-45.2268079, -23.837111], [-45.2318403, -23.84024], [-45.2330155, -23.8420657], [-45.2385439, -23.8430436], [-45.2404764, -23.8408217], [-45.2410241, -23.8410554], [-45.2428114, -23.8379811], [-45.2444684, -23.8373201], [-45.2471094, -23.838388], [-45.2475495, -23.8376863], [-45.2527987, -23.8371351], [-45.2553328, -23.8360519], [-45.2563191, -23.8373793], [-45.2586605, -23.8363694], [-45.2648247, -23.8374763], [-45.2665611, -23.8386576], [-45.2677813, -23.8372539], [-45.2690731, -23.8372234], [-45.2738816, -23.838699], [-45.2757239, -23.8413687], [-45.2807166, -23.8439682], [-45.2816834, -23.8497251], [-45.284402, -23.8488057], [-45.2868893, -23.8515278], [-45.2888895, -23.8584315], [-45.2879304, -23.8622644], [-45.2860585, -23.862095], [-45.2854274, -23.8632635], [-45.2878283, -23.8654533], [-45.2909311, -23.8661357], [-45.2904218, -23.8682378], [-45.2893434, -23.8679539], [-45.2904196, -23.8694421], [-45.2891688, -23.8704443], [-45.2901052, -23.8715457], [-45.288854, -23.873698], [-45.2849979, -23.8733173], [-45.2822218, -23.8742988], [-45.2817204, -23.8736143], [-45.2764003, -23.8726945], [-45.2754548, -23.8738622], [-45.2724413, -23.8731627], [-45.2704227, -23.8744379], [-45.2697617, -23.8769225], [-45.2688207, -23.8774463], [-45.2687915, -23.8794824], [-45.270122, -23.8804851], [-45.2726139, -23.8798915], [-45.2730662, -23.8811948], [-45.2748909, -23.8819457], [-45.2752397, -23.8832997], [-45.2769835, -23.8829118], [-45.2778645, -23.8842435], [-45.2768988, -23.8856312], [-45.2742023, -23.8859152], [-45.275108, -23.8899499], [-45.2735828, -23.8907352], [-45.2728638, -23.8923249], [-45.267841, -23.8931331], [-45.2641391, -23.8920988], [-45.2641633, -23.8929357], [-45.2626591, -23.8931573], [-45.2615215, -23.8921418], [-45.259449, -23.8948902], [-45.2547421, -23.8963156], [-45.2526045, -23.8983104], [-45.2522765, -23.9003451], [-45.2495603, -23.9008426], [-45.2497321, -23.9023962], [-45.2484783, -23.9032372], [-45.2441756, -23.9009425], [-45.2454855, -23.8962774], [-45.2413698, -23.8921902], [-45.2403463, -23.8943635], [-45.2358662, -23.8972499], [-45.2348777, -23.9006168], [-45.2289671, -23.898338], [-45.2270411, -23.8998236], [-45.2271873, -23.9014541], [-45.2264084, -23.90241], [-45.2231795, -23.9034729], [-45.2236883, -23.90544], [-45.2263096, -23.9078459], [-45.2306947, -23.9075909], [-45.2345648, -23.9063905], [-45.2379, -23.908917], [-45.2380825, -23.9123287], [-45.2370429, -23.912769], [-45.2375321, -23.9135379], [-45.2369601, -23.9140512], [-45.2376117, -23.916503], [-45.235531, -23.9192026], [-45.2367306, -23.9219806], [-45.237795, -23.9227014], [-45.2379464, -23.9253194], [-45.2367857, -23.927495], [-45.2351288, -23.9279301], [-45.2343949, -23.9293208], [-45.2330006, -23.9292033], [-45.2322409, -23.9309911], [-45.2348546, -23.9320925], [-45.2369589, -23.9348898], [-45.2366038, -23.9365129], [-45.2347833, -23.9371682], [-45.2362125, -23.9423493], [-45.2357542, -23.9439107], [-45.2322281, -23.944626], [-45.2271862, -23.9422315], [-45.2265116, -23.9427129], [-45.2291876, -23.9460686], [-45.2326819, -23.9473914], [-45.2348887, -23.949898], [-45.2356772, -23.951467], [-45.2355642, -23.9536889], [-45.2376275, -23.9568515], [-45.2374832, -23.9585408], [-45.240545, -23.9627376], [-45.2518398, -23.9680822], [-45.2523862, -23.9670935], [-45.2548749, -23.9659797], [-45.2601873, -23.9655705], [-45.2641437, -23.9664305], [-45.2685279, -23.9652845], [-45.2684938, -23.9622261], [-45.2705722, -23.9622537], [-45.2703919, -23.9616155], [-45.2733624, -23.9596614], [-45.2732541, -23.9575751], [-45.2755575, -23.9563595], [-45.2766737, -23.9544069], [-45.2795159, -23.9535627], [-45.2793965, -23.9503551], [-45.2804915, -23.9483586], [-45.2830446, -23.9452828], [-45.2859746, -23.943852], [-45.2872038, -23.941308], [-45.2850036, -23.9381303], [-45.2818022, -23.9358721], [-45.2800962, -23.9300573], [-45.2808775, -23.9289633], [-45.2801251, -23.928477], [-45.2810099, -23.9280337], [-45.2811891, -23.926316], [-45.2826377, -23.9255914], [-45.2836766, -23.9218225], [-45.2854008, -23.9199316], [-45.2884226, -23.9187719], [-45.2880355, -23.9172816], [-45.2899837, -23.9161345], [-45.2911072, -23.9105886], [-45.2926222, -23.9103458], [-45.2955748, -23.9121318], [-45.2975457, -23.9124091], [-45.3010932, -23.915736], [-45.3028584, -23.9155887], [-45.3031646, -23.9149716], [-45.3016846, -23.9128475], [-45.3021184, -23.9116703], [-45.3041333, -23.9108628], [-45.3027242, -23.9099722], [-45.3032785, -23.9084771], [-45.304375, -23.907975], [-45.3062463, -23.9087058], [-45.3090945, -23.9121793], [-45.3112759, -23.9116456], [-45.3136036, -23.9139438], [-45.3171662, -23.9154564], [-45.3189675, -23.9150868], [-45.3205332, -23.916511], [-45.3213681, -23.9143714], [-45.3258042, -23.9119213], [-45.328575, -23.9154053], [-45.3324643, -23.9160518], [-45.333997, -23.9180579], [-45.3364803, -23.9191165]], [[-45.4439599, -23.8314104], [-45.4431658, -23.8312587], [-45.4430988, -23.8319101], [-45.4437145, -23.8322224], [-45.4439599, -23.8314104]], [[-45.3934648, -23.8297874], [-45.3917423, -23.8286923], [-45.3924151, -23.8300877], [-45.3934648, -23.8297874]], [[-45.4133338, -23.8282721], [-45.4126255, -23.8280709], [-45.4133338, -23.8282721]], [[-45.5412379, -23.8281921], [-45.5427504, -23.8287051], [-45.5419518, -23.8273042], [-45.5412379, -23.8281921]], [[-45.1538338, -23.8286215], [-45.1550653, -23.8290026], [-45.1558862, -23.827711], [-45.1532067, -23.8259175], [-45.1530109, -23.8280424], [-45.1538338, -23.8286215]], [[-45.4698517, -23.8235767], [-45.4698517, -23.8235767]], [[-45.4062538, -23.8163515], [-45.4062538, -23.8163515]], [[-45.4070588, -23.8150522], [-45.4064805, -23.8154318], [-45.4075276, -23.8148738], [-45.4070588, -23.8150522]], [[-45.4058945, -23.8141961], [-45.4062869, -23.8136637], [-45.4058945, -23.8141961]], [[-45.2262043, -23.8121752], [-45.2261153, -23.8132904], [-45.2277471, -23.8144721], [-45.2294378, -23.8122116], [-45.2273568, -23.8110502], [-45.2262043, -23.8121752]], [[-45.1385883, -23.7919763], [-45.140442, -23.7948484], [-45.1400122, -23.7971273], [-45.1375606, -23.7970623], [-45.1364702, -23.7982776], [-45.1307744, -23.7979039], [-45.1297461, -23.799063], [-45.1241659, -23.8005242], [-45.123133, -23.8029235], [-45.1175715, -23.8026894], [-45.1151814, -23.8035623], [-45.1168786, -23.8062449], [-45.116173, -23.8089947], [-45.117188, -23.8122729], [-45.1201072, -23.8139596], [-45.1213032, -23.8137899], [-45.1244909, -23.8109217], [-45.1324183, -23.8093069], [-45.1362169, -23.8119217], [-45.1417946, -23.8136876], [-45.1441213, -23.816712], [-45.1470621, -23.8176192], [-45.1479406, -23.8136915], [-45.1515647, -23.8121773], [-45.1520481, -23.8108162], [-45.1564497, -23.8104537], [-45.1569735, -23.8043282], [-45.1576091, -23.8032512], [-45.1589736, -23.8037519], [-45.1613145, -23.8030051], [-45.1606547, -23.8017794], [-45.1567628, -23.7989597], [-45.1527949, -23.7944747], [-45.148004, -23.7913988], [-45.145712, -23.7917038], [-45.1426929, -23.7900891], [-45.1410952, -23.7908467], [-45.138917, -23.7897149], [-45.1376149, -23.7904527], [-45.1385883, -23.7919763]], [[-45.2869853, -23.5940941], [-45.2851493, -23.5942971], [-45.2809998, -23.5928168], [-45.2799065, -23.5958581], [-45.2827962, -23.5989127], [-45.2827874, -23.6011648], [-45.2850871, -23.5993469], [-45.287364, -23.5999163], [-45.2896516, -23.6020213], [-45.2955747, -23.6016167], [-45.2956534, -23.5986824], [-45.2915044, -23.5934168], [-45.2889368, -23.5923372], [-45.2869853, -23.5940941]], [[-45.3097363, -23.5859224], [-45.3092594, -23.5864615], [-45.3099763, -23.5871657], [-45.3105642, -23.5863628], [-45.3097363, -23.5859224]], [[-45.3106314, -23.5826502], [-45.3106163, -23.5838812], [-45.3125883, -23.5839074], [-45.3117088, -23.5813091], [-45.3109485, -23.581284], [-45.3106314, -23.5826502]], [[-45.1518886, -23.5637669], [-45.1513061, -23.5648428], [-45.1520367, -23.5656311], [-45.1501132, -23.565542], [-45.1499974, -23.5669212], [-45.1486943, -23.5676133], [-45.1463859, -23.5672651], [-45.1459914, -23.5688186], [-45.1446452, -23.5695289], [-45.1449261, -23.5710899], [-45.1470531, -23.5717926], [-45.1482066, -23.5698665], [-45.1514681, -23.5691621], [-45.1514947, -23.568232], [-45.1572929, -23.5736144], [-45.1580062, -23.5707077], [-45.1621257, -23.5704481], [-45.1626849, -23.5687205], [-45.1633549, -23.5686764], [-45.163314, -23.567558], [-45.1584785, -23.5624476], [-45.1577546, -23.5599946], [-45.1553624, -23.5601632], [-45.1527457, -23.5624977], [-45.152799, -23.563714], [-45.1518886, -23.5637669]], [[-45.1519495, -23.5591699], [-45.1515533, -23.5580294], [-45.1507729, -23.5582278], [-45.1509765, -23.5596603], [-45.1519495, -23.5591699]], [[-45.1555757, -23.5503018], [-45.1550473, -23.5500203], [-45.155235, -23.550761], [-45.1555757, -23.5503018]], [[-45.2155876, -23.5502828], [-45.2167176, -23.5509744], [-45.2189982, -23.5505385], [-45.2159797, -23.5485638], [-45.2151237, -23.5492147], [-45.2155876, -23.5502828]], [[-45.1544254, -23.5481724], [-45.1558521, -23.5472307], [-45.1548605, -23.5468976], [-45.1544254, -23.5481724]], [[-45.1540597, -23.5339225], [-45.1540597, -23.5339225]], [[-45.2116937, -23.5330727], [-45.213794, -23.5331313], [-45.2142943, -23.5318861], [-45.212195, -23.5316765], [-45.210375, -23.5332562], [-45.2116937, -23.5330727]], [[-45.0141256, -23.7413751], [-45.0136803, -23.7418797], [-45.0166901, -23.7489613], [-45.00844, -23.7474967], [-45.0070418, -23.7522994], [-45.0075445, -23.7547438], [-45.0100948, -23.7583301], [-45.0147512, -23.7612577], [-45.0149584, -23.7596155], [-45.017762, -23.7595314], [-45.0187653, -23.7585847], [-45.0167547, -23.7549346], [-45.0175587, -23.7528597], [-45.0172729, -23.7507073], [-45.0216329, -23.7491384], [-45.0238479, -23.7462758], [-45.0219748, -23.7435183], [-45.0234639, -23.7417443], [-45.0232374, -23.7404696], [-45.0209934, -23.740389], [-45.0175449, -23.7387526], [-45.0141256, -23.7413751]], [[-45.0306913, -23.7366967], [-45.0297205, -23.7364953], [-45.029641, -23.7375897], [-45.0334239, -23.7395198], [-45.0339112, -23.7386737], [-45.0306913, -23.7366967]], [[-45.0251161, -23.7378537], [-45.0253797, -23.7371675], [-45.0229973, -23.7354354], [-45.0209252, -23.7343824], [-45.0200075, -23.7352024], [-45.0203617, -23.737453], [-45.0228154, -23.7389731], [-45.0225161, -23.7399526], [-45.0243203, -23.7399895], [-45.0251161, -23.7378537]], [[-45.0764481, -23.5636946], [-45.0773977, -23.56472], [-45.0787719, -23.5647051], [-45.0793789, -23.5634054], [-45.0769188, -23.562027], [-45.0758183, -23.562526], [-45.0764481, -23.5636946]], [[-45.0243965, -23.5500007], [-45.0243965, -23.5500007]], [[-45.0262908, -23.5476768], [-45.0321234, -23.5490392], [-45.0329854, -23.5482194], [-45.0314969, -23.546586], [-45.0287798, -23.5458834], [-45.0263365, -23.5441153], [-45.0244903, -23.5442771], [-45.0262908, -23.5476768]], [[-45.0776995, -23.5324224], [-45.0777514, -23.5361051], [-45.073817, -23.5384553], [-45.0698722, -23.539614], [-45.068874, -23.5388579], [-45.0640614, -23.5386283], [-45.0606869, -23.5340432], [-45.0609179, -23.5301179], [-45.0599944, -23.5277396], [-45.0587444, -23.5267416], [-45.0575325, -23.527942], [-45.0537213, -23.5274946], [-45.0531191, -23.528381], [-45.0508482, -23.5276633], [-45.0502115, -23.5282358], [-45.050511, -23.5292986], [-45.0486906, -23.5300492], [-45.0482471, -23.5312146], [-45.0445511, -23.5315032], [-45.0452112, -23.5346365], [-45.0401312, -23.5331627], [-45.0392255, -23.534539], [-45.0409624, -23.5390313], [-45.0410417, -23.5413772], [-45.04616, -23.5430272], [-45.04973, -23.5459634], [-45.0567155, -23.5455456], [-45.0594672, -23.5501162], [-45.0624663, -23.5522448], [-45.0652163, -23.5555115], [-45.0670293, -23.5551742], [-45.0703683, -23.5573233], [-45.0723871, -23.556832], [-45.0772383, -23.5613755], [-45.0789503, -23.5602212], [-45.0797961, -23.5569569], [-45.0812391, -23.5564992], [-45.080742, -23.5543732], [-45.0819026, -23.5540132], [-45.0803063, -23.5529188], [-45.080978, -23.5510693], [-45.0776505, -23.54621], [-45.0796352, -23.5453906], [-45.0790627, -23.5443626], [-45.0798321, -23.5408571], [-45.0835777, -23.5387676], [-45.0823452, -23.5367752], [-45.0826134, -23.5357301], [-45.0797008, -23.5337043], [-45.0799855, -23.530703], [-45.0812488, -23.5283391], [-45.080439, -23.5259467], [-45.0781509, -23.5273921], [-45.0781752, -23.5287761], [-45.0763152, -23.5290878], [-45.0776995, -23.5324224]], [[-45.0228724, -23.5432948], [-45.0228724, -23.5432948]], [[-45.0406017, -23.5166582], [-45.0399001, -23.5171791], [-45.0420477, -23.5187181], [-45.0420421, -23.5173201], [-45.0412192, -23.516378], [-45.0406017, -23.5166582]], [[-45.102619, -23.4992862], [-45.1025087, -23.4986536], [-45.1019503, -23.499021], [-45.102619, -23.4992862]], [[-45.0524076, -23.4685929], [-45.0521772, -23.4680823], [-45.0524076, -23.4685929]], [[-45.0583828, -23.467879], [-45.0585701, -23.4683432], [-45.0583828, -23.467879]], [[-44.9028476, -23.4245946], [-44.9013627, -23.4241673], [-44.9009435, -23.4247462], [-44.9024423, -23.4273383], [-44.9042098, -23.4275887], [-44.9058292, -23.4265719], [-44.9028476, -23.4245946]], [[-44.8616897, -23.4231457], [-44.8612309, -23.4220597], [-44.859707, -23.4217413], [-44.8604149, -23.4235359], [-44.8616897, -23.4231457]], [[-44.8529369, -23.414391], [-44.8538646, -23.4153825], [-44.8536723, -23.4163617], [-44.8495413, -23.4209772], [-44.8523884, -23.4226417], [-44.8535968, -23.426601], [-44.8536096, -23.4260119], [-44.8577012, -23.4243013], [-44.8596421, -23.4251299], [-44.8594124, -23.423748], [-44.8564829, -23.4231364], [-44.8543641, -23.4201197], [-44.8552485, -23.4189717], [-44.8550099, -23.4167488], [-44.855752, -23.4164284], [-44.8539483, -23.4148571], [-44.8528786, -23.4108349], [-44.8536215, -23.4099352], [-44.852268, -23.4086853], [-44.8525128, -23.4096373], [-44.8517172, -23.4102629], [-44.8529369, -23.414391]], [[-45.0080675, -23.4134272], [-45.0085167, -23.4137524], [-45.0086117, -23.413112], [-45.0080675, -23.4134272]], [[-44.936048, -23.4124262], [-44.935541, -23.4122858], [-44.936048, -23.4124262]], [[-44.8498641, -23.4051353], [-44.8505025, -23.4052027], [-44.8501937, -23.4037435], [-44.8493916, -23.4040017], [-44.8498641, -23.4051353]], [[-44.89719, -23.4026119], [-44.8970574, -23.4034205], [-44.8978347, -23.4027263], [-44.89719, -23.4026119]], [[-44.8559041, -23.3990663], [-44.8547343, -23.3991184], [-44.8565919, -23.3999358], [-44.8559041, -23.3990663]], [[-44.8543998, -23.3984797], [-44.8471884, -23.3945279], [-44.846687, -23.3963041], [-44.8483229, -23.398233], [-44.8513397, -23.3999183], [-44.8501309, -23.4020801], [-44.8506218, -23.403039], [-44.852979, -23.4025037], [-44.8523387, -23.4010144], [-44.853888, -23.4001864], [-44.8543998, -23.3984797]], [[-44.9387375, -23.3910792], [-44.9387375, -23.3910792]], [[-44.8873686, -23.3890188], [-44.8882527, -23.3895364], [-44.8888845, -23.3889178], [-44.8880259, -23.3881863], [-44.8873686, -23.3890188]], [[-44.9379326, -23.3869822], [-44.9358049, -23.3872517], [-44.9364015, -23.3883455], [-44.9389354, -23.3888488], [-44.9389301, -23.3877766], [-44.9379326, -23.3869822]], [[-44.9406203, -23.383229], [-44.9410191, -23.3853501], [-44.9431424, -23.3871335], [-44.9487154, -23.3872895], [-44.9508291, -23.388438], [-44.9503489, -23.3871668], [-44.9485415, -23.3866976], [-44.9476071, -23.3847054], [-44.9468713, -23.3846804], [-44.9464399, -23.3827018], [-44.945093, -23.3836045], [-44.9406203, -23.383229]], [[-44.9348534, -23.3847045], [-44.9348534, -23.3847045]], [[-44.889009, -23.3841924], [-44.8875442, -23.3836059], [-44.8871033, -23.3841658], [-44.8891055, -23.3856999], [-44.889009, -23.3841924]], [[-44.9001538, -23.3773579], [-44.9020928, -23.3776862], [-44.9037564, -23.3797504], [-44.9071214, -23.380237], [-44.9073317, -23.3787794], [-44.9065876, -23.377745], [-44.9043615, -23.3769279], [-44.9027891, -23.3752441], [-44.8978244, -23.3758024], [-44.9001538, -23.3773579]], [[-44.8924184, -23.352938], [-44.8930611, -23.3532274], [-44.8924184, -23.352938]], [[-44.9044741, -23.3519613], [-44.9036131, -23.3510786], [-44.9025936, -23.3513599], [-44.9037881, -23.3532159], [-44.9048649, -23.3526843], [-44.9044741, -23.3519613]], [[-44.9087239, -23.3373881], [-44.908567, -23.3362376], [-44.9080576, -23.3369751], [-44.9087239, -23.3373881]]]}}